{"type": "FeatureCollection", "features": [{"type": "Feature", "properties": {"title": "Hellenic Trench"}, "geometry": {"type": "Polygon", "coordinates": [[[20.4412, 38.1705], [20.479, 38.1703], [20.4871, 38.1208], [20.5683, 38.0887], [20.6995, 37.9359], [20.6254, 37.8816], [20.6237, 37.8216], [20.8133, 37.6479], [20.8588, 37.6533], [20.842, 37.6983], [20.9167, 37.7371], [20.9858, 37.6971], [20.9946, 37.7161], [21.3014, 37.646], [21.2905, 37.5976], [21.3165, 37.5418], [21.411, 37.5624], [21.5017, 37.5257], [21.5814, 37.458], [21.6203, 37.3521], [21.4795, 37.1161], [21.5203, 37.0392], [21.6018, 36.9771], [21.6585, 36.8235], [21.6639, 36.725], [21.7732, 36.6857], [21.826, 36.705], [21.8908, 36.6515], [21.9492, 36.6998], [22.0149, 36.7072], [22.0409, 36.7392], [22.0205, 36.7985], [22.0278, 36.9486], [22.0811, 36.9729], [22.1048, 36.9001], [22.2326, 36.7844], [22.3141, 36.6076], [22.3426, 36.4621], [22.4158, 36.4456], [22.413, 36.4049], [22.4598, 36.4023], [22.4816, 36.3768], [22.5161, 36.3952], [22.5311, 36.5128], [22.5599, 36.5506], [22.5543, 36.6034], [22.6078, 36.6976], [22.6553, 36.7501], [22.7535, 36.7501], [22.7914, 36.6379], [22.8957, 36.5377], [22.8753, 36.4474], [22.9485, 36.3865], [22.8912, 36.3216], [22.9221, 36.29], [22.907, 36.1991], [22.99, 36.1329], [23.0577, 36.1448], [23.2129, 35.9358], [23.2715, 35.9052], [23.2941, 35.8479], [23.5996, 35.6279], [23.5654, 35.5108], [23.5788, 35.485], [23.5546, 35.4675], [23.5679, 35.4242], [23.5312, 35.3825], [23.5479, 35.3233], [23.5137, 35.3058], [23.5804, 35.26], [23.5858, 35.232], [23.6741, 35.222], [23.8325, 35.2488], [23.9216, 35.2212], [23.9908, 35.2287], [24.0366, 35.1929], [24.2008, 35.2004], [24.2858, 35.1745], [24.3849, 35.1937], [24.3907, 35.172], [24.5191, 35.1453], [24.5582, 35.1003], [24.7282, 35.0904], [24.7587, 35.0266], [24.7546, 34.9492], [24.7317, 34.9204], [25.095, 34.9321], [25.3741, 34.9979], [25.5033, 34.9812], [25.6958, 35.0154], [25.7942, 34.9971], [25.9742, 35.0387], [26.0241, 35.0129], [26.0866, 35.0179], [26.095, 34.9953], [26.1408, 35.0006], [26.2308, 35.032], [26.2717, 35.0886], [26.8479, 35.3481], [26.8859, 35.3404], [26.9908, 35.4004], [27.0152, 35.4402], [27.1434, 35.3979], [27.1717, 35.4604], [27.2308, 35.4729], [27.7504, 35.8775], [27.8642, 35.9279], [27.9508, 36.0429], [28.0225, 36.0763], [28.0879, 36.0533], [28.077, 36.0742], [28.1021, 36.1042], [28.0696, 36.1075], [28.0762, 36.14], [28.1067, 36.1812], [28.1387, 36.185], [28.2179, 36.3283], [28.2087, 36.3492], [28.2487, 36.3874], [28.2226, 36.4644], [28.2606, 36.4647], [28.6126, 36.6682], [28.733, 36.6575], [28.7516, 36.6225], [28.8044, 36.6155], [28.8196, 36.5571], [28.9364, 36.5582], [29.0633, 36.5113], [29.0795, 36.4916], [29.0591, 36.4327], [29.1045, 36.3469], [29.3569, 36.168], [29.601, 36.0794], [29.7145, 36.088], [30.2004, 36.2316], [30.3199, 36.2207], [30.4039, 36.1638], [30.4006, 35.9008], [30.3011, 35.9364], [30.259, 35.9023], [30.2062, 35.9113], [30.2224, 35.8235], [30.2071, 35.8081], [30.1659, 35.8212], [30.1492, 35.8535], [30.0737, 35.8498], [30.0853, 35.8824], [30.0366, 35.9091], [29.8889, 35.9443], [29.7573, 35.816], [29.6568, 35.8175], [29.435, 35.8633], [29.3002, 35.9271], [29.2168, 35.9319], [28.9672, 36.1275], [28.3887, 36.1278], [28.2678, 35.9559], [28.1802, 35.7132], [27.8836, 35.4776], [27.7073, 35.4161], [27.3384, 35.1592], [27.3254, 35.1158], [27.3683, 35.0866], [27.2372, 34.9152], [26.9403, 34.8765], [26.8348, 34.8122], [26.6425, 34.7528], [26.1488, 34.7089], [25.6018, 34.5318], [25.4345, 34.5333], [25.1131, 34.5871], [24.0121, 34.5982], [23.8593, 34.6473], [23.6814, 34.7753], [23.5295, 34.9577], [21.1006, 36.7857], [20.2299, 37.5776], [20.1553, 37.596], [20.0001, 38.0033], [20.0006, 38.2034], [20.3929, 38.3269], [20.3996, 38.3576], [20.3879, 38.2766], [20.3579, 38.2608], [20.3362, 38.19], [20.385, 38.1479], [20.4412, 38.1705]]]}}, {"type": "Feature", "properties": {"title": "Pelagos Sanctuary"}, "geometry": {"type": "Polygon", "coordinates": [[[6.324, 43.0937], [6.369, 43.0894], [6.3597, 43.1198], [6.385, 43.1442], [6.4936, 43.1503], [6.5526, 43.1875], [6.6479, 43.1665], [6.6422, 43.1868], [6.6814, 43.2002], [6.6642, 43.242], [6.6974, 43.2671], [6.5759, 43.2729], [6.7164, 43.3463], [6.7464, 43.4179], [6.8522, 43.4098], [6.8596, 43.4321], [6.8934, 43.4287], [6.9566, 43.4972], [6.9371, 43.5142], [6.9628, 43.5419], [7.0385, 43.5348], [7.0965, 43.5705], [7.1386, 43.5454], [7.1219, 43.5855], [7.155, 43.6521], [7.2137, 43.6468], [7.2412, 43.6879], [7.3038, 43.6846], [7.3139, 43.7065], [7.331, 43.6743], [7.35, 43.6863], [7.3374, 43.7118], [7.4058, 43.719], [7.4532, 43.7595], [7.4862, 43.7499], [7.5138, 43.7844], [7.6733, 43.7765], [8.0674, 43.8888], [8.1735, 43.955], [8.163, 43.9929], [8.2264, 44.043], [8.23, 44.0905], [8.2675, 44.1384], [8.4254, 44.1958], [8.416, 44.2233], [8.4546, 44.2608], [8.4396, 44.2757], [8.5022, 44.327], [8.7404, 44.4268], [8.9142, 44.3982], [8.9203, 44.4134], [9.1411, 44.3606], [9.144, 44.3224], [9.2165, 44.2983], [9.211, 44.3306], [9.2324, 44.3476], [9.3717, 44.2923], [9.4022, 44.2522], [9.4922, 44.2374], [9.6323, 44.1347], [9.6737, 44.1397], [9.8307, 44.0485], [9.8506, 44.0669], [9.8139, 44.0977], [9.8516, 44.1101], [9.9611, 44.0389], [10.0157, 44.0471], [10.1439, 43.9783], [10.249, 43.8632], [10.2977, 43.5366], [10.3318, 43.4728], [10.4245, 43.4001], [10.5276, 43.2407], [10.5384, 43.0921], [10.5152, 43.0], [10.4829, 42.9884], [10.4952, 42.9326], [10.5409, 42.921], [10.5498, 42.9481], [10.627, 42.9547], [10.7446, 42.9269], [10.7851, 42.888], [10.7628, 42.8137], [10.729, 42.8018], [10.9528, 42.738], [11.0061, 42.6553], [11.0872, 42.6292], [11.1228, 42.5582], [11.1581, 42.563], [11.1942, 42.5024], [11.1644, 42.4373], [11.1071, 42.4486], [11.0867, 42.4307], [11.0963, 42.3933], [11.1885, 42.3632], [11.2085, 42.4083], [11.2652, 42.4201], [11.5183, 42.355], [9.5143, 41.1561], [9.5208, 41.1421], [9.4666, 41.1431], [9.449, 41.102], [9.4466, 41.1355], [9.4051, 41.1582], [9.4239, 41.1776], [9.37, 41.1834], [9.3643, 41.2067], [9.3081, 41.1893], [9.2861, 41.2191], [9.2854, 41.184], [9.2656, 41.2004], [9.2789, 41.2287], [9.234, 41.2589], [9.1926, 41.2347], [9.1513, 41.2455], [9.1597, 41.1617], [9.0117, 41.1258], [8.9193, 41.0336], [8.8783, 41.0286], [8.8727, 40.9956], [8.7892, 40.9222], [8.7111, 40.9184], [8.5778, 40.8373], [8.4595, 40.8195], [8.3973, 40.8468], [8.3131, 40.8453], [8.249, 40.891], [8.2358, 40.9537], [8.1978, 40.9688], [6.0983, 43.0283], [6.1729, 43.0326], [6.1527, 43.036], [6.1537, 43.0753], [6.2011, 43.1156], [6.2761, 43.1205], [6.324, 43.0937]]]}}, {"type": "Feature", "properties": {"title": "Cetacean Migration Corridor"}, "geometry": {"type": "Polygon", "coordinates": [[[2.2694, 39.8561], [1.6674, 39.4784], [1.007, 39.3172], [1.0001, 38.8343], [0.7999, 38.6665], [0.5015, 38.6665], [0.3393, 38.8291], [0.3393, 39.502], [0.5577, 40.0155], [1.5788, 40.7061], [3.2551, 41.3848], [3.5089, 41.6268], [3.6506, 41.9042], [3.6506, 42.3159], [4.5569, 41.1142], [4.0755, 40.5703], [2.2694, 39.8561]]]}}]}