{"type": "FeatureCollection", "features": [{"type": "Feature", "properties": {"name": "Mediterranean Sea"}, "geometry": {"type": "Polygon", "coordinates": [[[32.15, 31.22], [32.15, 31.2], [31.9593, 30.9338], [31.6893, 31.4297], [30.9765, 31.5566], [30.0945, 31.4737], [29.6841, 31.1877], [28.9137, 30.8695], [28.4493, 31.0252], [27.4593, 31.3214], [26.4945, 31.5854], [25.1661, 31.5685], [24.9212, 31.9002], [23.9276, 32.017], [23.6108, 32.188], [23.2364, 32.1913], [22.8944, 32.6382], [21.5444, 32.843], [20.8532, 32.7076], [20.1332, 32.2387], [19.82, 31.7513], [20.054, 30.9862], [19.5752, 30.5259], [19.0856, 30.2669], [18.02, 30.7628], [16.6124, 31.1826], [15.7124, 31.3755], [15.2444, 32.2658], [13.9195, 32.7127], [13.0843, 32.8785], [12.6631, 32.7922], [11.4895, 33.1375], [11.1079, 33.2932], [10.8559, 33.7688], [10.3411, 33.7857], [10.1503, 34.3307], [10.8091, 34.8334], [10.9387, 35.6983], [10.5931, 35.9471], [10.6003, 36.4109], [11.1007, 36.9], [11.0287, 37.0913], [10.1791, 36.724], [10.2115, 37.2301], [9.5095, 37.3503], [8.4223, 36.9457], [7.7383, 36.8865], [7.3315, 37.1184], [6.2623, 37.1099], [5.3191, 36.7173], [4.815, 36.8645], [3.1626, 36.7833], [1.467, 36.6055], [0.5022, 36.3009], [-0.1278, 35.8879], [-1.2078, 35.7153], [-2.169, 35.1686], [-2.6046, 35.1787], [-3.6414, 35.4004], [-4.5918, 35.331], [-5.1931, 35.7559], [-5.55, 35.7575], [-5.55, 35.9765], [-5.3767, 35.9471], [-4.995, 36.3246], [-4.3686, 36.6783], [-3.4146, 36.6597], [-2.1474, 36.6732], [-1.4382, 37.4434], [-0.6822, 37.6431], [-0.4662, 38.293], [0.1098, 38.7382], [-0.279, 39.3102], [0.1062, 40.1244], [0.7218, 40.6778], [0.8118, 41.0147], [2.0934, 41.2262], [3.0402, 41.8914], [2.9862, 42.4736], [3.1014, 43.0745], [4.5558, 43.3995], [6.5287, 43.1287], [7.4359, 43.694], [7.8499, 43.7668], [8.4295, 44.2305], [8.8903, 44.3659], [9.7039, 44.0359], [10.2007, 43.9208], [10.5103, 42.9323], [11.1907, 42.3552], [12.1051, 41.7052], [12.8863, 41.2533], [13.6279, 41.189], [14.0599, 40.7862], [14.7043, 40.6051], [14.9995, 40.1735], [15.4136, 40.0482], [15.7196, 39.5438], [16.1084, 38.965], [15.8924, 38.7517], [15.6872, 38.2152], [15.6836, 37.9088], [16.1012, 37.9867], [16.634, 38.8431], [17.0516, 38.9023], [17.1704, 39.4253], [16.4504, 39.796], [16.868, 40.4426], [17.7392, 40.2784], [18.2936, 39.8112], [18.4808, 40.1684], [18.3764, 40.3563], [17.5196, 40.8776], [16.7852, 41.1805], [15.8888, 41.541], [16.1696, 41.7408], [15.9248, 41.9608], [15.1436, 41.9557], [14.0311, 42.7614], [13.5271, 43.5873], [12.5875, 44.0917], [12.2599, 44.6012], [12.3823, 44.8855], [12.3283, 45.3815], [13.1419, 45.7369], [13.9375, 45.5913], [13.7143, 45.4999], [13.6783, 45.4847], [13.6567, 45.1377], [13.9519, 44.8026], [14.2579, 45.2342], [14.9023, 45.0768], [14.9203, 44.7383], [15.3776, 44.3185], [15.176, 44.2441], [16.0148, 43.5078], [16.9292, 43.2099], [17.5088, 42.8494], [18.4484, 42.4804], [18.8804, 42.2807], [19.1612, 41.9557], [19.3736, 41.8779], [19.5392, 41.7205], [19.4024, 41.409], [19.3196, 40.7269], [19.406, 40.2513], [19.9604, 39.9145], [19.9784, 39.6945], [20.1512, 39.6251], [20.216, 39.3407], [20.7308, 38.7703], [21.1196, 38.3099], [21.296, 37.6448], [21.6704, 36.8459], [22.4912, 36.4109], [23.1536, 36.4227], [22.7756, 37.3046], [23.4092, 37.4095], [23.114, 37.9207], [24.0392, 37.6549], [24.0248, 38.2202], [23.5316, 38.5097], [22.9736, 38.97], [23.3516, 39.1901], [22.8512, 39.6589], [22.628, 40.2564], [22.8152, 40.4764], [23.3444, 39.9619], [23.8988, 39.9619], [24.4064, 40.1244], [23.7152, 40.6863], [24.9248, 40.947], [25.4469, 40.8522], [26.0553, 40.8234], [26.0445, 40.6169], [26.15, 40.4601], [26.15, 40.3], [26.45, 40.0], [26.7916, 40.0], [26.1705, 39.4643], [26.8041, 38.9853], [26.3181, 38.2084], [27.0489, 37.6532], [27.6429, 36.6597], [28.7337, 36.6766], [29.6985, 36.1435], [30.3897, 36.2636], [30.6201, 36.6783], [31.7001, 36.6445], [32.5101, 36.1079], [34.0257, 36.2196], [34.7133, 36.7951], [35.5522, 36.5649], [36.1606, 36.6512], [35.7826, 36.2755], [36.1498, 35.8219], [35.905, 35.4106], [35.9986, 34.6456], [35.9806, 34.61], [35.4838, 33.9059], [35.1274, 33.0901], [35.0986, 33.0799], [34.9545, 32.8278], [34.7529, 32.0729], [34.4865, 31.6057], [34.5549, 31.5482], [34.2669, 31.2198], [33.7737, 30.9676], [32.9925, 31.0235], [32.6, 31.1399], [32.6, 31.22], [32.3297, 31.22], [32.1933, 31.2604], [32.1644, 31.22], [32.15, 31.22]], [[33.6657, 35.3734], [32.9457, 35.3869], [32.8017, 35.1449], [32.7333, 35.1398], [32.2581, 35.1025], [32.4885, 34.7014], [32.9781, 34.5711], [34.0041, 34.9773], [33.9753, 35.0585], [33.8997, 35.2464], [34.5765, 35.6712], [33.6657, 35.3734]], [[23.5136, 35.2803], [24.734, 35.0856], [24.7232, 34.9198], [26.1633, 35.0044], [26.2893, 35.3006], [25.7457, 35.1804], [25.7709, 35.3547], [25.0257, 35.4258], [24.248, 35.3683], [23.7008, 35.7051], [23.5136, 35.2803]], [[14.7619, 38.1441], [13.7395, 38.0358], [12.5695, 38.1272], [12.4327, 37.6126], [13.8259, 37.1048], [14.3335, 36.9965], [15.1004, 36.6208], [15.3092, 37.1336], [15.1616, 37.4434], [15.5216, 38.2304], [14.7619, 38.1441]], [[8.7103, 40.8996], [8.1595, 40.9503], [8.3899, 40.3783], [8.4295, 39.1715], [8.8075, 38.9074], [9.2143, 39.2409], [9.6679, 39.1765], [9.8083, 40.5001], [9.2107, 41.2093], [8.7103, 40.8996]], [[9.3907, 43.0102], [8.7463, 42.6277], [8.5447, 42.257], [8.7751, 41.5834], [9.2287, 41.3802], [9.5599, 42.1521], [9.3907, 43.0102]]]}}]}