{"type": "FeatureCollection", "name": "PSSA (clipped to the sea)", "crs": {"type": "name", "properties": {"name": "urn:ogc:def:crs:OGC:1.3:CRS84"}}, "features": [{"type": "Feature", "properties": {"begin": 1, "end": 13, "title": "PSSA"}, "geometry": {"type": "Polygon", "coordinates": [[[9.51967, 41.153], [8.2, 40.96667], [4.07554, 40.5703], [2.2694, 39.85611], [1.66736, 39.47835], [1.007, 39.31717], [1.00011, 38.83426], [0.79985, 38.66649], [0.11176, 38.67753], [0.11858, 38.68281], [0.12574, 38.68549], [0.14503, 38.68635], [0.14894, 38.68993], [0.15089, 38.69245], [0.16261, 38.71353], [0.17677, 38.72403], [0.19207, 38.73041], [0.20899, 38.73371], [0.22771, 38.73456], [0.23455, 38.74225], [0.23406, 38.75788], [0.22771, 38.77021], [0.21787, 38.76813], [0.19077, 38.78522], [0.18287, 38.79182], [0.17091, 38.79609], [0.181, 38.80191], [0.18531, 38.80353], [0.15398, 38.831], [0.11101, 38.84992], [0.06308, 38.86079], [0.01743, 38.86433], [-0.00976, 38.8697], [-0.031, 38.88276], [-0.06859, 38.9134], [-0.10595, 38.93651], [-0.12068, 38.95112], [-0.15803, 39.00214], [-0.18404, 39.04226], [-0.21003, 39.07869], [-0.2267, 39.11178], [-0.23651, 39.14805], [-0.24218, 39.16628], [-0.22786, 39.17524], [-0.21549, 39.18184], [-0.22782, 39.19934], [-0.2387, 39.21545], [-0.30134, 39.32201], [-0.32067, 39.38813], [-0.32747, 39.43067], [-0.33059, 39.48041], [-0.32335, 39.51622], [-0.31273, 39.534], [-0.28148, 39.56936], [-0.27489, 39.58181], [-0.26956, 39.5987], [-0.25744, 39.61624], [-0.24372, 39.63105], [-0.21984, 39.65139], [-0.20893, 39.66409], [-0.20214, 39.68085], [-0.19982, 39.70494], [-0.19449, 39.71544], [-0.0913, 39.84793], [-0.02868, 39.9018], [-0.00292, 39.93195], [-0.00029, 39.93624], [0.0405, 40.00288], [0.06617, 40.03193], [0.11704, 40.05634], [0.14454, 40.07884], [0.20525, 40.17154], [0.26474, 40.20978], [0.29884, 40.24677], [0.3121, 40.25751], [0.33896, 40.27436], [0.3506, 40.2849], [0.42026, 40.38825], [0.44614, 40.40843], [0.45265, 40.43407], [0.46616, 40.45067], [0.48341, 40.46503], [0.50131, 40.4842], [0.51743, 40.51435], [0.54851, 40.57233], [0.56349, 40.59003], [0.58017, 40.60366], [0.59978, 40.61371], [0.68222, 40.63422], [0.71249, 40.63618], [0.73268, 40.63373], [0.69622, 40.59036], [0.66318, 40.57473], [0.64064, 40.58686], [0.59246, 40.5821], [0.6159, 40.55345], [0.64796, 40.55691], [0.67709, 40.56517], [0.70704, 40.5834], [0.75636, 40.64224], [0.78403, 40.66096], [0.84832, 40.67536], [0.85808, 40.68627], [0.87241, 40.7071], [0.87371, 40.72793], [0.85418, 40.73314], [0.84181, 40.73212], [0.81593, 40.7484], [0.792, 40.77119], [0.78053, 40.77949], [0.76694, 40.78502], [0.75017, 40.786], [0.76352, 40.77839], [0.76726, 40.77102], [0.76238, 40.76606], [0.75017, 40.76557], [0.72153, 40.77428], [0.69483, 40.786], [0.7142, 40.81521], [0.82276, 40.8996], [0.86838, 40.94563], [1.14714, 41.0702], [1.1491, 41.06965], [1.17294, 41.05866], [1.1836, 41.06257], [1.18865, 41.0683], [1.19247, 41.076], [1.20833, 41.09754], [1.22813, 41.10639], [1.2881, 41.11628], [1.53924, 41.18745], [1.62436, 41.19217], [1.81983, 41.23713], [1.85401, 41.23599], [1.86378, 41.2381], [1.88413, 41.2475], [1.95135, 41.26069], [2.0197, 41.26586], [2.06031, 41.2746], [2.13054, 41.30366], [2.16326, 41.32665], [2.19191, 41.35676], [2.24041, 41.42097], [2.26734, 41.44864], [2.29672, 41.46532], [2.37135, 41.4892], [2.42897, 41.51895], [2.44947, 41.53522], [2.65187, 41.60529], [2.7785, 41.64558], [2.792, 41.66901], [2.80372, 41.66865], [2.81316, 41.67031], [2.81707, 41.67764], [2.82016, 41.68195], [2.83546, 41.69257], [2.84018, 41.69465], [2.85108, 41.69717], [2.87725, 41.70196], [2.90087, 41.70671], [2.93299, 41.71246], [2.95094, 41.73428], [3.04034, 41.78689], [3.06906, 41.79908], [3.07863, 41.82662], [3.11683, 41.84757], [3.15017, 41.84535], [3.17856, 41.87523], [3.19492, 41.88829], [3.20745, 41.91393], [3.23219, 41.94603], [3.23569, 41.96552], [3.23056, 41.97301], [3.21184, 41.98461], [3.20786, 41.99002], [3.20696, 41.99669], [3.20159, 42.01744], [3.1959, 42.03312], [3.19986, 42.04619], [3.21301, 42.05599], [3.2145, 42.06833], [3.1923, 42.09292], [3.17311, 42.11201], [3.1386, 42.12763], [3.12249, 42.14049], [3.11647, 42.15843], [3.11744, 42.18285], [3.11883, 42.21833], [3.1303, 42.23973], [3.15162, 42.25682], [3.17018, 42.25967], [3.17872, 42.2497], [3.21013, 42.23973], [3.24716, 42.24571], [3.26303, 42.23985], [3.27036, 42.25011], [3.27939, 42.25564], [3.28704, 42.26293], [3.29038, 42.27806], [3.29404, 42.28803], [3.31772, 42.32298], [3.29371, 42.33499], [3.28061, 42.33686], [3.26987, 42.32921], [3.26303, 42.32921], [3.24985, 42.34321], [3.22649, 42.34252], [3.20419, 42.33959], [3.18735, 42.34951], [3.17449, 42.3638], [3.17449, 42.38089], [3.17018, 42.39659], [3.17872, 42.418], [3.18157, 42.43509], [3.17587, 42.45649], [3.16025, 42.47504], [3.15024, 42.48216], [3.14308, 42.49213], [3.14593, 42.50353], [3.14593, 42.51496], [3.13738, 42.52493], [3.11459, 42.53063], [3.08749, 42.53494], [3.06609, 42.54206], [3.05185, 42.55488], [3.04615, 42.58767], [3.04184, 42.62906], [3.03761, 42.68321], [3.0433, 42.7246], [3.03899, 42.75027], [3.04046, 42.79019], [3.04754, 42.84724], [3.05608, 42.90713], [3.0547, 42.92711], [3.04184, 42.93281], [3.03899, 42.94278], [3.04615, 42.96418], [3.05608, 42.9927], [3.06324, 43.00837], [3.0704, 43.02692], [3.08603, 43.05402], [3.09604, 43.07258], [3.10418, 43.0878], [3.11402, 43.10631], [3.136, 43.12104], [3.15447, 43.13528], [3.16594, 43.15241], [3.17872, 43.16523], [3.19589, 43.17666], [3.20729, 43.18663], [3.22096, 43.19522], [3.22755, 43.20425], [3.24431, 43.21943], [3.31772, 43.26309], [3.38543, 43.28392], [3.4284, 43.28547], [3.4524, 43.28876], [3.49236, 43.27432], [3.51336, 43.28107], [3.58969, 43.35489], [3.62216, 43.3749], [3.73992, 43.41283], [3.9393, 43.53254], [3.95297, 43.53994], [3.9909, 43.55085], [4.04746, 43.55614], [4.10532, 43.55187], [4.1312, 43.53624], [4.13282, 43.53278], [4.1172, 43.51048], [4.13282, 43.48705], [4.16033, 43.4715], [4.18165, 43.46377], [4.2059, 43.45991], [4.40942, 43.44774], [4.51303, 43.4558], [4.55521, 43.44327], [4.57959, 43.43007], [4.58804, 43.41689], [4.5857, 43.40424], [4.56554, 43.38795], [4.56629, 43.37109], [4.59234, 43.35989], [4.66589, 43.34754], [4.79125, 43.34522], [4.82028, 43.34636], [4.82302, 43.36717], [4.80006, 43.38605], [4.7697, 43.40192], [4.74252, 43.42255], [4.72877, 43.4562], [4.72877, 43.5279], [4.72438, 43.5384], [4.69459, 43.5729], [4.69459, 43.57312], [4.71459, 43.56869], [4.72584, 43.55679], [4.73618, 43.5395], [4.74244, 43.52448], [4.74497, 43.50739], [4.74244, 43.44872], [4.75782, 43.42235], [4.79176, 43.39912], [4.83326, 43.38198], [4.85082, 43.35893], [4.85578, 43.34178], [4.87719, 43.35078], [4.90101, 43.36697], [4.86753, 43.36511], [4.86489, 43.3779], [4.85499, 43.39619], [4.85027, 43.40143], [4.85841, 43.41523], [4.86817, 43.42145], [4.89259, 43.42536], [4.90317, 43.43163], [4.92848, 43.44013], [4.98308, 43.41706], [4.99847, 43.4147], [5.0276, 43.41698], [5.05112, 43.42927], [5.06227, 43.45165], [5.0503, 43.47671], [5.03582, 43.48558], [5.02369, 43.49046], [5.01466, 43.49872], [5.01419, 43.50039], [5.20658, 43.45165], [5.19288, 43.43952], [5.17384, 43.42829], [5.14617, 43.42206], [5.05714, 43.42206], [5.02613, 43.40933], [5.00557, 43.38163], [5.01394, 43.35792], [5.03402, 43.33548], [5.06479, 43.32802], [5.12517, 43.32577], [5.16324, 43.32931], [5.23828, 43.32804], [5.29417, 43.35547], [5.33888, 43.33429], [5.35182, 43.29792], [5.35597, 43.29206], [5.35734, 43.28034], [5.36915, 43.27041], [5.36085, 43.25397], [5.35377, 43.2438], [5.3506, 43.23359], [5.34698, 43.2159], [5.37034, 43.20786], [5.39531, 43.21234], [5.40952, 43.21129], [5.43975, 43.20765], [5.45983, 43.20852], [5.50418, 43.20566], [5.51434, 43.20774], [5.52495, 43.21263], [5.53784, 43.20739], [5.54725, 43.19386], [5.55897, 43.18158], [5.57271, 43.16915], [5.58826, 43.16798], [5.61242, 43.16043], [5.6229, 43.17673], [5.63421, 43.18723], [5.65522, 43.18559], [5.67392, 43.17989], [5.68767, 43.16885], [5.6963, 43.14688], [5.74101, 43.13206], [5.76056, 43.13198], [5.77613, 43.13081], [5.78084, 43.12333], [5.78341, 43.1146], [5.80056, 43.11185], [5.81146, 43.10673], [5.81809, 43.09909], [5.8029, 43.08889], [5.78187, 43.07912], [5.79024, 43.06993], [5.81896, 43.05347], [5.85661, 43.04483], [5.87534, 43.06879], [5.88796, 43.07223], [5.91721, 43.07274], [5.94029, 43.07091], [5.95138, 43.07998], [5.92725, 43.0876], [5.91061, 43.0932], [5.89625, 43.11542], [5.87941, 43.12043], [5.90854, 43.13129], [5.92449, 43.13434], [5.94093, 43.13402], [5.93824, 43.1291], [5.93653, 43.11945], [5.93409, 43.11359], [5.95865, 43.10217], [5.99173, 43.10235], [6.01652, 43.09894], [6.02701, 43.0782], [6.04452, 43.07821], [6.09193, 43.0829], [6.10966, 43.08432], [6.12909, 43.07136], [6.13207, 43.05264], [6.11925, 43.04515], [6.10303, 43.04078], [6.08852, 43.03485], [6.09769, 43.03126], [6.15446, 43.03375], [6.18007, 43.03592], [6.18542, 43.04544], [6.17133, 43.04232], [6.15277, 43.04811], [6.15317, 43.07197], [6.16293, 43.0926], [6.17866, 43.10286], [6.1932, 43.10877], [6.2197, 43.11655], [6.25347, 43.12087], [6.28037, 43.11867], [6.3062, 43.10941], [6.32569, 43.10419], [6.32887, 43.09992], [6.34226, 43.09076], [6.37537, 43.09084], [6.36988, 43.10552], [6.36608, 43.11863], [6.37854, 43.13608], [6.40168, 43.14694], [6.42202, 43.15234], [6.45133, 43.15272], [6.47916, 43.15606], [6.50568, 43.15097], [6.52671, 43.16057], [6.53643, 43.17254], [6.53991, 43.1822], [6.56372, 43.18445], [6.58128, 43.18437], [6.59327, 43.18773], [6.59547, 43.17988], [6.59946, 43.17499], [6.60987, 43.17341], [6.62916, 43.17988], [6.64039, 43.18183], [6.6604, 43.19041], [6.6798, 43.20155], [6.67198, 43.21361], [6.6654, 43.22129], [6.66836, 43.23954], [6.68539, 43.24804], [6.69802, 43.26546], [6.69337, 43.27297], [6.67236, 43.2762], [6.61167, 43.26429], [6.59089, 43.2689], [6.59724, 43.28401], [6.62463, 43.29591], [6.65203, 43.31493], [6.66131, 43.32233], [6.66603, 43.3332], [6.67457, 43.34638], [6.69393, 43.34837], [6.71784, 43.3506], [6.71778, 43.36689], [6.73282, 43.38208], [6.73115, 43.40785], [6.7465, 43.41791], [6.75709, 43.42269], [6.77297, 43.41845], [6.78305, 43.40863], [6.81884, 43.41607], [6.83483, 43.41581], [6.84667, 43.41258], [6.86014, 43.41587], [6.8561, 43.42873], [6.85799, 43.43618], [6.86296, 43.43936], [6.86656, 43.43546], [6.86967, 43.43205], [6.87107, 43.42609], [6.89403, 43.42763], [6.89824, 43.438], [6.92037, 43.44901], [6.92508, 43.47276], [6.9543, 43.50011], [6.95381, 43.50462], [6.94899, 43.50739], [6.94955, 43.50788], [6.94089, 43.51246], [6.9452, 43.52725], [6.96209, 43.54011], [6.9756, 43.54695], [6.99382, 43.54891], [7.01447, 43.54709], [7.03063, 43.54789], [7.0372, 43.53626], [7.04508, 43.54214], [7.05811, 43.54989], [7.07105, 43.5608], [7.08843, 43.56867], [7.10432, 43.56829], [7.11294, 43.56454], [7.12551, 43.54777], [7.13892, 43.55402], [7.13624, 43.56246], [7.13258, 43.57355], [7.13209, 43.5788], [7.12615, 43.60583], [7.13307, 43.63386], [7.13657, 43.64118], [7.14422, 43.64545], [7.15162, 43.65477], [7.16459, 43.65606], [7.17765, 43.66011], [7.19668, 43.65692], [7.20379, 43.64436], [7.2138, 43.64867], [7.23181, 43.66347], [7.22851, 43.6742], [7.24167, 43.68487], [7.25727, 43.69165], [7.28025, 43.69333], [7.3009, 43.68769], [7.319, 43.68525], [7.33053, 43.68642], [7.33806, 43.69831], [7.3423, 43.70783], [7.35318, 43.71569], [7.36575, 43.72273], [7.38072, 43.71927], [7.40432, 43.71797], [7.41796, 43.7309], [7.43285, 43.73985], [7.44597, 43.74985], [7.45435, 43.75712], [7.46266, 43.76211], [7.46844, 43.7617], [7.47641, 43.76463], [7.47731, 43.76813], [7.47576, 43.78083], [7.47641, 43.78449], [7.48072, 43.78583], [7.48487, 43.78539], [7.48911, 43.78547], [7.50229, 43.79222], [7.51287, 43.79214], [7.5232, 43.78905], [7.5311, 43.78449], [7.54412, 43.78449], [7.57203, 43.79133], [7.695, 43.79121], [7.73658, 43.79824], [7.78582, 43.82197], [7.95973, 43.85285], [8.03142, 43.88752], [8.05567, 43.89208], [8.06772, 43.89667], [8.07301, 43.90461], [8.07545, 43.90965], [8.08155, 43.91523], [8.0892, 43.91987], [8.11524, 43.92768], [8.1447, 43.95258], [8.16798, 43.95649], [8.16798, 43.96263], [8.15268, 43.98322], [8.16912, 44.00666], [8.21632, 44.04523], [8.22381, 44.0572], [8.22999, 44.0725], [8.23121, 44.08031], [8.22999, 44.09634], [8.23316, 44.10358], [8.25652, 44.12836], [8.26954, 44.13874], [8.28468, 44.14826], [8.31349, 44.16047], [8.3694, 44.17353], [8.39454, 44.18236], [8.40821, 44.19351], [8.40854, 44.20409], [8.4065, 44.21503], [8.41188, 44.22704], [8.41725, 44.23066], [8.43238, 44.23802], [8.43539, 44.24042], [8.43653, 44.24754], [8.43946, 44.25316], [8.44972, 44.26435], [8.44451, 44.28388], [8.46608, 44.30427], [8.54029, 44.34003], [8.56479, 44.35716], [8.57667, 44.36054], [8.59376, 44.36274], [8.65512, 44.39468], [8.66277, 44.39558], [8.67091, 44.39472], [8.67856, 44.39468], [8.68531, 44.3981], [8.69581, 44.40672], [8.72478, 44.42398], [8.73715, 44.42878], [8.76238, 44.43211], [8.827, 44.42845], [8.83774, 44.41718], [8.84539, 44.41348], [8.86842, 44.40974], [8.91456, 44.40892], [8.92368, 44.41157], [8.95289, 44.39981], [9.00123, 44.38727], [9.10206, 44.37397], [9.13006, 44.36335], [9.14861, 44.34003], [9.14666, 44.32856], [9.16505, 44.3183], [9.2107, 44.30532], [9.20981, 44.32087], [9.21372, 44.33344], [9.22104, 44.34406], [9.23064, 44.35371], [9.26271, 44.33641], [9.36769, 44.29442], [9.37452, 44.2718], [9.42237, 44.25678], [9.42921, 44.24726], [9.43678, 44.23949], [9.45387, 44.2377], [9.4725, 44.23981], [9.48439, 44.24384], [9.48976, 44.2309], [9.49903, 44.22183], [9.51124, 44.21524], [9.55649, 44.20014], [9.57301, 44.1916], [9.57993, 44.17894], [9.58619, 44.17772], [9.6211, 44.14826], [9.63103, 44.1446], [9.64324, 44.14232], [9.67254, 44.14081], [9.68263, 44.13654], [9.70973, 44.11774], [9.72088, 44.11347], [9.77182, 44.07941], [9.81983, 44.06338], [9.82643, 44.05549], [9.83229, 44.0423], [9.84254, 44.04116], [9.84636, 44.04629], [9.83326, 44.05207], [9.83888, 44.06037], [9.84164, 44.06338], [9.8475, 44.06631], [9.8475, 44.0725], [9.83815, 44.07477], [9.83058, 44.07884], [9.82447, 44.08491], [9.81959, 44.093], [9.82399, 44.09512], [9.82862, 44.09813], [9.83326, 44.09984], [9.82643, 44.10725], [9.84474, 44.10863], [9.8768, 44.08784], [9.88795, 44.093], [9.90431, 44.0799], [9.93784, 44.06037], [9.95362, 44.04865], [9.96274, 44.04466], [9.97267, 44.04572], [9.98072, 44.04987], [9.98414, 44.05549], [9.98854, 44.05976], [9.99855, 44.05805], [10.01482, 44.05207], [10.03533, 44.04784], [10.07203, 44.02953], [10.09059, 44.02538], [10.1058, 44.01675], [10.13649, 43.97871], [10.18067, 43.95527], [10.21013, 43.92023], [10.25164, 43.84663], [10.26401, 43.80939], [10.29477, 43.56855], [10.31723, 43.49262], [10.32635, 43.47687], [10.35914, 43.46528], [10.37338, 43.45319], [10.43702, 43.38858], [10.51694, 43.26679], [10.52817, 43.24677], [10.53289, 43.22622], [10.53443, 43.18529], [10.53834, 43.16425], [10.54656, 43.14712], [10.53932, 43.13418], [10.53566, 43.11262], [10.53566, 43.09138], [10.53907, 43.07941], [10.5171, 43.02391], [10.5027, 43.00556], [10.47755, 42.99006], [10.49952, 42.9405], [10.51857, 42.92528], [10.54656, 42.93476], [10.54347, 42.93879], [10.53907, 42.94912], [10.58326, 42.9597], [10.6325, 42.95848], [10.68141, 42.94904], [10.75074, 42.92528], [10.76352, 42.91828], [10.77296, 42.90815], [10.77768, 42.89472], [10.77459, 42.88825], [10.76873, 42.88394], [10.76564, 42.8771], [10.76637, 42.85419], [10.7649, 42.83527], [10.75538, 42.81916], [10.73129, 42.80443], [10.89088, 42.7639], [10.94361, 42.74299], [10.97234, 42.72004], [10.98121, 42.71629], [10.99, 42.71027], [10.99562, 42.69603], [11.00025, 42.67988], [11.00571, 42.66791], [11.05348, 42.64704], [11.07781, 42.63223], [11.0809, 42.6127], [11.09742, 42.60688], [11.10727, 42.59077], [11.11598, 42.57197], [11.12867, 42.55805], [11.13722, 42.55891], [11.14861, 42.56318], [11.15846, 42.56403], [11.16603, 42.54621], [11.18686, 42.52082], [11.18898, 42.50471], [11.18845, 42.48027], [11.17969, 42.4565], [11.16419, 42.43983], [11.14182, 42.4388], [11.11302, 42.44636], [11.09913, 42.44286], [11.08694, 42.42946], [11.08676, 42.41836], [11.09449, 42.40274], [11.10662, 42.39126], [11.13453, 42.38418], [11.1478, 42.37141], [11.15594, 42.36628], [11.1574, 42.36774], [11.16472, 42.36933], [11.17465, 42.36933], [11.18385, 42.36628], [11.18629, 42.3793], [11.20094, 42.39545], [11.20436, 42.41096], [11.21127, 42.41889], [11.22739, 42.42219], [11.24562, 42.42231], [11.25904, 42.42084], [11.33302, 42.40058], [11.36207, 42.40038], [11.35467, 42.40721], [11.36573, 42.4079], [11.37664, 42.40689], [11.38689, 42.40428], [11.39617, 42.40038], [11.39617, 42.39297], [11.42066, 42.38662], [11.48927, 42.35936], [11.51616, 42.35369], [9.51967, 41.153]]]}}]}