{"type": "FeatureCollection", "features": [{"type": "Feature", "properties": {"whale_id": "212761", "coordinateProperties": {"times": [1620327774000, 1620501364000, 1620502739000, 1620504260000, 1620579693000, 1620589228000, 1620668024000, 1620670240000, 1621014357000, 1621016932000, 1621145659000, 1621146997000, 1621191254000, 1621277360000, 1621359656000, 1621362135000, 1621365766000, 1621410295000, 1621445058000, 1621451569000, 1621452787000, 1621453264000, 1621681289000, 1621886367000, 1621927388000, 1621928902000, 1622060618000]}}, "geometry": {"type": "LineString", "coordinates": [[1.9617, 41.1417], [1.7281, 40.8281], [1.7275, 40.8316], [1.7125, 40.8323], [1.2555, 40.9143], [1.3411, 40.9927], [1.3968, 41.0211], [1.398, 41.0355], [3.0777, 41.5953], [3.0878, 41.5959], [3.1905, 41.5924], [3.2029, 41.5937], [3.1346, 41.629], [3.1111, 41.6793], [3.1277, 41.5723], [3.1713, 41.6033], [3.2039, 41.62], [3.1747, 41.568], [3.121, 41.5619], [3.1462, 41.5532], [3.0947, 41.5382], [3.1062, 41.5436], [3.2645, 41.264], [3.5239, 41.5441], [3.5606, 41.6542], [3.5621, 41.6698], [4.1561, 41.9263]]}}, {"type": "Feature", "properties": {"whale_id": "212762", "coordinateProperties": {"times": [1620385964000, 1620416350000, 1620416663000, 1620417114000, 1620419326000, 1620423472000, 1620460473000, 1620470899000, 1620495262000, 1620498864000, 1620501282000, 1620502860000, 1620504293000, 1620505714000, 1620506377000, 1620508702000, 1620579815000, 1620582367000, 1620588513000, 1620589092000, 1620592246000, 1620641260000, 1620668025000, 1620670140000, 1620674101000, 1620674292000, 1620676183000, 1620676249000, 1620676996000, 1620680483000, 1620715025000, 1620718729000, 1620721043000, 1620759657000, 1620759788000, 1620761973000, 1620767251000, 1620801281000, 1620804358000, 1620811838000, 1620844747000, 1620845341000, 1620846815000, 1620852350000, 1620854984000, 1620905501000, 1620924974000, 1620929694000, 1620930186000, 1620931190000, 1620931837000, 1620935595000, 1620935769000, 1620937643000, 1620940518000, 1620943657000, 1620975845000, 1620985314000, 1621016557000, 1621016867000, 1621017501000, 1621020973000, 1621026521000, 1621065461000, 1621073143000, 1621077056000, 1621101406000, 1621102300000, 1621107543000, 1621108139000, 1621112435000, 1621146899000, 1621150528000, 1621156604000, 1621156668000, 1621158318000, 1621162494000, 1621188092000, 1621189325000, 1621191246000, 1621192539000, 1621193451000, 1621194334000, 1621197399000, 1621197478000, 1621199133000, 1621203841000, 1621238901000, 1621249316000, 1621282489000, 1621283370000, 1621284256000, 1621318341000, 1621320508000, 1621320975000, 1621321262000, 1621324594000, 1621326970000, 1621328031000, 1621328694000, 1621334026000, 1621358296000, 1621365698000, 1621366152000, 1621367681000, 1621369176000, 1621369476000, 1621375108000, 1621375386000, 1621405235000, 1621445140000, 1621447051000, 1621452824000, 1621452890000, 1621454756000, 1621454902000, 1621457522000, 1621460747000, 1621461034000, 1621491256000, 1621495612000, 1621504777000, 1621537851000, 1621537866000, 1621539806000, 1621545597000, 1621546735000, 1621582293000, 1621616426000, 1621617897000, 1621621803000, 1621622866000, 1621623225000, 1621625023000, 1621626174000, 1621627724000, 1621630840000, 1621632029000, 1621667367000, 1621672698000, 1621673637000, 1621675244000, 1621676586000, 1621702458000, 1621702486000, 1621707278000, 1621707747000, 1621708492000, 1621711975000, 1621712839000, 1621713785000, 1621714491000, 1621715871000, 1621717717000, 1621751770000, 1621752752000, 1621760506000, 1621766539000, 1621792817000, 1621793570000, 1621794072000, 1621798019000, 1621798498000, 1621799533000, 1621801233000, 1621803400000, 1621804248000, 1621807193000, 1621838616000, 1621845434000, 1621854178000, 1621877462000, 1621877557000, 1621878266000, 1621879805000, 1621883391000, 1621884631000, 1621886649000, 1621892404000, 1621895441000, 1621962312000, 1621963922000, 1621968344000, 1621971418000, 1621974371000, 1621975004000, 1621976013000, 1621977482000, 1621980960000, 1622027832000, 1622051246000, 1622053164000, 1622056845000, 1622057337000, 1622059538000, 1622060783000, 1622060922000, 1622062565000, 1622097219000, 1622103229000, 1622105448000, 1622107174000, 1622111417000, 1622113137000, 1622136839000, 1622137230000, 1622142886000, 1622143234000, 1622144160000, 1622144622000, 1622146267000, 1622146359000, 1622152553000, 1622154196000, 1622190529000, 1622190759000, 1622192201000, 1622196971000, 1622221639000, 1622222598000, 1622222872000, 1622226002000, 1622227694000, 1622228382000, 1622229358000, 1622231290000, 1622231892000, 1622232901000, 1622238144000, 1622239106000, 1622275763000, 1622278881000, 1622311524000, 1622312208000, 1622316515000, 1622317968000, 1622318203000, 1622323845000, 1622397081000, 1622398749000, 1622399929000, 1622403423000, 1622404858000, 1622409498000, 1622409503000, 1622481295000]}}, "geometry": {"type": "LineString", "coordinates": [[1.9334, 41.0883], [2.0472, 41.1816], [2.109, 41.1947], [2.0813, 41.1239], [2.0624, 41.107], [1.9394, 41.0918], [1.9783, 41.0742], [1.9828, 41.0508], [1.6577, 40.895], [1.7031, 40.9194], [1.6808, 40.8752], [1.6509, 40.8593], [1.66, 40.8676], [1.6965, 40.8656], [1.669, 40.857], [1.6709, 40.8811], [1.3342, 40.7528], [1.3733, 40.7601], [1.4772, 40.7763], [1.4409, 40.7398], [1.4848, 40.685], [1.6227, 40.4103], [1.7696, 40.2846], [1.7674, 40.2714], [1.7819, 40.2916], [1.7941, 40.3284], [1.7865, 40.2908], [1.8175, 40.3195], [1.8214, 40.3204], [1.7716, 40.316], [2.0228, 40.5317], [2.0725, 40.5705], [2.0713, 40.6241], [1.9292, 40.8581], [1.967, 40.8778], [1.9138, 40.8828], [1.838, 40.8117], [2.2089, 41.1539], [2.2874, 41.1536], [2.4327, 41.2712], [3.2978, 41.4945], [3.3454, 41.508], [3.3636, 41.5254], [3.3648, 41.5074], [3.5012, 41.538], [3.9264, 41.8649], [3.9875, 41.8336], [3.948, 41.8025], [3.9846, 41.7876], [3.9922, 41.7856], [3.9748, 41.7802], [4.0077, 41.7925], [3.9922, 41.7863], [4.0007, 41.7896], [3.9723, 41.7714], [3.9685, 41.7936], [3.8829, 41.8063], [3.9923, 41.7644], [3.7496, 41.7458], [3.8129, 41.758], [3.8088, 41.7695], [3.7813, 41.7794], [3.7712, 41.7792], [4.3295, 41.9094], [4.4511, 41.9248], [4.4745, 41.9564], [4.6484, 41.921], [4.7288, 41.9647], [4.6554, 42.0028], [4.6409, 41.9978], [4.6396, 41.9966], [5.0398, 42.1109], [5.0233, 42.1084], [5.124, 42.0913], [5.1616, 42.0662], [5.1872, 42.0706], [5.2069, 42.0158], [5.2142, 41.8991], [5.2409, 41.8709], [5.2037, 41.8557], [5.2471, 41.8893], [5.2637, 41.8718], [5.2041, 41.858], [5.2517, 41.797], [5.2503, 41.7939], [5.2262, 41.81], [5.2697, 41.7919], [5.4547, 41.7919], [5.5366, 41.6822], [5.6875, 41.8213], [5.6815, 41.8397], [5.7247, 41.8376], [5.9656, 41.8735], [5.9996, 41.8985], [5.9511, 41.9145], [5.9677, 41.917], [6.0019, 41.9699], [6.0439, 42.0037], [6.0735, 42.0094], [6.0827, 42.0186], [6.2639, 42.0122], [6.3294, 41.9354], [6.2618, 41.98], [6.2914, 42.0008], [6.309, 42.0298], [6.3002, 42.0295], [6.3399, 42.0325], [6.3036, 41.969], [6.3085, 41.9656], [6.6314, 41.7919], [6.8193, 41.6007], [6.7856, 41.5954], [6.8337, 41.5999], [6.8163, 41.6102], [6.8031, 41.6192], [6.8136, 41.6121], [6.7575, 41.5841], [6.7291, 41.5674], [6.7171, 41.5519], [6.7524, 41.5428], [6.756, 41.5975], [6.8618, 41.5858], [6.8236, 41.6082], [6.8311, 41.6025], [6.8508, 41.6151], [6.8728, 41.6634], [6.8955, 41.6799], [6.6131, 41.8297], [6.5658, 41.8001], [6.6044, 41.7809], [6.6267, 41.8125], [6.6232, 41.8155], [6.5638, 41.7948], [6.545, 41.8244], [6.5394, 41.8379], [6.5166, 41.8477], [6.4712, 41.8771], [6.4522, 41.8847], [6.4833, 41.9144], [6.5834, 41.9179], [6.6333, 41.9261], [6.6295, 41.9251], [6.5757, 41.8758], [6.4485, 41.6347], [6.4662, 41.6652], [6.4523, 41.7135], [6.4049, 41.6956], [6.4211, 41.6946], [6.4149, 41.7118], [6.367, 41.7254], [6.3739, 41.7424], [6.3426, 41.7259], [6.2992, 41.7263], [6.3147, 41.7307], [6.0264, 41.7061], [5.9906, 41.6862], [5.8465, 41.7707], [5.9079, 41.7531], [5.5181, 41.9827], [5.4954, 41.9723], [5.5216, 41.9982], [5.5472, 42.0111], [5.5443, 42.0343], [5.5449, 42.0147], [5.5839, 41.9981], [5.5415, 41.9788], [5.5652, 41.9779], [5.5691, 41.9311], [5.6588, 41.9683], [5.5473, 41.9736], [5.5376, 41.8934], [5.3087, 41.8579], [5.3311, 41.8489], [5.3016, 41.8408], [5.2895, 41.8552], [5.2945, 41.8542], [5.2234, 41.8537], [5.2382, 41.8397], [5.1838, 41.7481], [5.1677, 41.7029], [4.6618, 41.4552], [4.7009, 41.4821], [4.6549, 41.5209], [4.6078, 41.5719], [4.5828, 41.5756], [4.5962, 41.5827], [4.6108, 41.5967], [4.6051, 41.6125], [4.5988, 41.5986], [4.7878, 41.6064], [4.6425, 41.4854], [4.6086, 41.4895], [4.6212, 41.5388], [4.5844, 41.5338], [4.5805, 41.5579], [4.6101, 41.5634], [4.577, 41.5438], [4.6043, 41.5639], [4.5818, 41.5299], [4.7136, 41.455], [4.7379, 41.4656], [4.7604, 41.4544], [4.7767, 41.389], [4.8725, 41.3613], [4.9574, 41.1553], [4.9653, 41.1577], [5.0018, 41.1343], [4.9841, 41.1498], [5.0025, 41.1766], [4.9593, 41.171], [4.9473, 41.1705], [4.9355, 41.1643], [4.9075, 41.1171], [4.9007, 41.1062], [4.9023, 41.352], [4.9089, 41.3519], [4.8324, 41.3687], [4.8493, 41.4262], [4.7529, 41.6258], [4.7684, 41.6426], [4.7661, 41.6436], [4.7771, 41.6601], [4.8019, 41.6991], [4.7558, 41.7056], [4.7534, 41.7148], [4.7698, 41.6977], [4.7626, 41.7085], [4.7475, 41.7191], [4.7403, 41.7856], [4.7759, 41.7986], [4.7545, 42.0854], [4.7638, 42.0523], [4.9419, 41.8894], [4.936, 41.8937], [4.8165, 41.8346], [4.8305, 41.8017], [4.8165, 41.8233], [4.7569, 41.7729], [4.045, 41.6532], [3.9973, 41.6777], [3.9979, 41.6916], [3.9632, 41.6438], [3.9467, 41.6814], [3.9061, 41.6127], [3.909, 41.6104], [4.4174, 42.0205]]}}, {"type": "Feature", "properties": {"whale_id": "212759", "coordinateProperties": {"times": [1620504058000, 1620548368000, 1620677073000, 1620677534000, 1620724918000, 1620839233000, 1620845605000, 1620849188000, 1620850831000, 1620854964000, 1620937520000, 1620975524000, 1620986329000, 1621014307000, 1621065380000, 1621104749000, 1621106103000, 1621107592000, 1621108210000, 1621146968000, 1621156559000, 1621156637000, 1621189342000, 1621273593000, 1621273965000, 1621277354000, 1621282681000, 1621358421000, 1621362154000, 1621367612000, 1621367947000, 1621369462000, 1621372086000, 1621452990000, 1621454588000, 1621538000000, 1621539348000, 1621581869000]}}, "geometry": {"type": "LineString", "coordinates": [[1.9641, 41.0816], [1.4838, 40.9658], [1.9667, 40.943], [1.9714, 40.8892], [1.833, 40.9456], [2.5136, 41.1327], [2.5527, 41.0963], [2.5934, 41.1107], [2.5692, 41.1022], [2.5449, 41.0788], [2.4351, 41.0218], [2.391, 41.0805], [2.5189, 41.04], [2.6162, 40.9815], [2.2824, 41.0461], [2.5224, 40.9895], [2.482, 41.013], [2.4322, 40.9992], [2.4545, 40.9824], [2.7189, 40.8604], [2.6917, 40.8383], [2.7145, 40.8242], [2.3558, 40.927], [2.3563, 40.9149], [2.4217, 40.9458], [2.494, 40.9279], [2.4526, 40.9314], [2.5165, 40.8397], [2.5087, 40.875], [2.4739, 40.8769], [2.4706, 40.8714], [2.4882, 40.8936], [2.5386, 40.8993], [3.1902, 41.1673], [3.1909, 41.1726], [3.5789, 41.2843], [3.5558, 41.2805], [3.6749, 41.2815]]}}, {"type": "Feature", "properties": {"whale_id": "232681", "coordinateProperties": {"times": [1652347433000, 1652347554000, 1652350366000, 1652353685000, 1652356446000, 1652379137000, 1652388942000, 1652391321000, 1652395115000, 1652421912000, 1652425735000, 1652435675000, 1652439402000, 1652441620000, 1652466487000, 1652468263000, 1652472562000, 1652474395000, 1652474685000, 1652476328000, 1652480687000, 1652525334000, 1652551338000, 1652557335000, 1652558680000, 1652560124000, 1652560147000, 1652561517000, 1652566394000, 1652598678000, 1652605895000, 1652640771000, 1652642437000, 1652646028000, 1652649612000, 1652652082000, 1652681493000, 1652684205000, 1652686251000, 1652690100000, 1652691239000, 1652694081000, 1652727189000, 1652731458000, 1652732133000, 1652734883000, 1652737476000, 1652737887000, 1652771145000, 1652775954000, 1652782395000, 1652782408000, 1652817244000, 1652823046000, 1652823483000, 1652855984000, 1652862091000, 1652867943000, 1652873864000, 1652902862000, 1652908307000, 1652909142000, 1652940966000, 1652946964000, 1652953755000, 1652988500000, 1652988550000, 1652993501000, 1653031753000, 1653080423000, 1653112496000, 1653159815000, 1653163541000, 1653166124000]}}, "geometry": {"type": "LineString", "coordinates": [[2.6928, 41.2663], [2.7521, 41.272], [2.6995, 41.2282], [2.6922, 41.2313], [2.7373, 41.1702], [2.5429, 41.1363], [2.642, 41.2334], [2.6648, 41.2497], [2.7597, 41.275], [3.1196, 41.2623], [3.2374, 41.2984], [3.4525, 41.2533], [3.4916, 41.2831], [3.526, 41.3153], [3.9898, 41.493], [4.1351, 41.5093], [4.0708, 41.5447], [4.0989, 41.5318], [4.0857, 41.5378], [4.136, 41.5554], [4.2153, 41.5641], [4.7446, 41.7865], [5.0814, 41.8355], [5.0583, 41.8531], [5.0442, 41.8577], [5.0898, 41.8616], [5.0837, 41.8722], [5.0149, 41.8546], [5.1101, 41.8241], [5.5299, 42.1473], [5.5085, 42.1965], [5.5864, 42.488], [5.5953, 42.496], [5.5542, 42.4868], [5.5339, 42.4739], [5.4796, 42.4957], [5.7936, 42.5757], [5.7766, 42.6106], [5.7912, 42.6246], [5.7863, 42.6606], [5.7832, 42.693], [5.7799, 42.7152], [5.9149, 42.6577], [5.9387, 42.6751], [5.9529, 42.6847], [5.9902, 42.6858], [6.0354, 42.6666], [6.0691, 42.6838], [6.3947, 42.4469], [6.5164, 42.3805], [6.6474, 42.3922], [6.6513, 42.4017], [6.5593, 42.4186], [6.4887, 42.3419], [6.482, 42.3337], [6.3884, 42.0894], [6.3438, 42.0546], [6.1768, 41.9866], [6.1258, 41.9467], [5.8479, 41.9603], [5.7971, 41.9979], [5.8258, 41.9791], [5.8969, 41.9404], [5.9229, 41.9468], [5.8601, 41.9776], [5.8734, 41.9258], [5.8496, 41.9667], [5.8293, 41.9834], [5.991, 41.9093], [5.9306, 41.8952], [5.8881, 41.7772], [5.8752, 41.4636], [5.7589, 41.453], [5.8252, 41.4348]]}}, {"type": "Feature", "properties": {"whale_id": "232682", "coordinateProperties": {"times": [1652381179000, 1652382478000, 1652385342000, 1652388127000, 1652388985000, 1652391418000, 1652421938000, 1652425599000, 1652427143000, 1652431630000, 1652433596000, 1652435571000, 1652439417000, 1652472490000, 1652476542000, 1652480893000, 1652508700000, 1652510577000, 1652512798000, 1652516446000, 1652518717000, 1652520824000, 1652550195000, 1652550203000, 1652554062000, 1652556255000, 1652557333000, 1652560108000, 1652561715000, 1652566394000, 1652596942000, 1652604639000, 1652605945000, 1652612030000, 1652639616000, 1652645794000, 1652646678000, 1652649493000, 1652652163000, 1652652898000, 1652681539000, 1652684289000, 1652686250000, 1652690323000, 1652692197000, 1652693940000, 1652697249000, 1652725344000, 1652726465000, 1652731495000, 1652731912000, 1652733169000, 1652734866000, 1652737483000, 1652738080000, 1652769904000, 1652771196000, 1652776003000, 1652776376000, 1652777079000, 1652782410000, 1652812001000, 1652812053000, 1652816982000, 1652823250000, 1652823388000, 1652855973000, 1652862076000, 1652867511000, 1652867979000, 1652896903000, 1652897589000, 1652903163000, 1652908263000, 1652941085000, 1652953740000, 1652955369000, 1652985060000, 1652987786000, 1652988487000, 1652994735000, 1653031573000, 1653033040000, 1653037926000, 1653039423000, 1653074041000, 1653078594000, 1653080476000, 1653084693000, 1653086634000, 1653112501000, 1653116662000, 1653118791000, 1653123023000, 1653124595000, 1653131059000, 1653159501000, 1653159818000, 1653159996000, 1653163631000, 1653163677000, 1653166176000, 1653166676000, 1653169836000, 1653172301000, 1653201477000, 1653204300000, 1653210237000, 1653214228000, 1653244389000, 1653244895000, 1653248346000, 1653251930000, 1653255082000, 1653302426000, 1653331172000, 1653337026000, 1653337474000, 1653343681000, 1653415697000, 1653418317000, 1653425132000, 1653429351000, 1653508699000, 1653510403000, 1653547122000, 1653553109000, 1653553146000, 1653557661000, 1653559595000, 1653593860000, 1653594415000, 1653595375000, 1653630803000, 1653638663000, 1653639815000, 1653645098000, 1653645757000, 1653651137000, 1653677819000, 1653680130000, 1653680966000, 1653686902000, 1653722914000, 1653730446000, 1653736823000, 1653736912000, 1653763627000, 1653763743000, 1653765743000, 1653771756000, 1653771956000, 1653804271000, 1653810263000, 1653813666000, 1653816176000, 1653818888000, 1653822133000, 1653848786000, 1653851397000, 1653854020000, 1653854787000, 1653857017000, 1653895929000, 1653898653000, 1653901477000, 1653907221000, 1653932775000, 1653933504000, 1653934273000, 1653942159000, 1653943352000, 1653945246000, 1653949388000, 1653979273000, 1653981593000, 1653983386000, 1653986467000, 1654027445000, 1654035123000, 1654067318000, 1654073110000, 1654079311000, 1654114521000, 1654118716000, 1654153292000, 1654158864000, 1654200100000, 1654200255000, 1654200481000, 1654203699000, 1654206234000, 1654244076000, 1654257148000, 1654292082000, 1654330216000, 1654336703000, 1654339010000, 1654371617000, 1654373953000, 1654413819000, 1654416088000, 1654418186000, 1654422422000, 1654424146000, 1654465081000, 1654498671000, 1654508008000, 1654542801000, 1654549013000, 1654550137000, 1654589653000, 1654593395000, 1654594550000, 1654599729000, 1654600605000, 1654626975000, 1654635410000]}}, "geometry": {"type": "LineString", "coordinates": [[3.1008, 41.4013], [3.0992, 41.4091], [3.1078, 41.4204], [3.0937, 41.4246], [3.0955, 41.4167], [3.0841, 41.3891], [3.2308, 41.3873], [3.2299, 41.4015], [3.2374, 41.4048], [3.2518, 41.4054], [3.2626, 41.4034], [3.273, 41.4015], [3.2794, 41.4152], [3.144, 41.4314], [3.1287, 41.4358], [3.0761, 41.4327], [3.0286, 41.3841], [3.0159, 41.3636], [3.0193, 41.3653], [2.9674, 41.3735], [2.9428, 41.3753], [2.9257, 41.3846], [2.7526, 41.3758], [2.7843, 41.3701], [2.755, 41.349], [2.7087, 41.3278], [2.6845, 41.3266], [2.6762, 41.3217], [2.662, 41.3175], [2.6088, 41.2914], [2.6172, 41.2571], [2.5732, 41.2141], [2.5526, 41.2151], [2.5269, 41.2421], [2.4293, 41.1646], [2.4495, 41.1525], [2.4066, 41.1837], [2.4712, 41.1844], [2.4292, 41.2084], [2.434, 41.1891], [2.2611, 41.1121], [2.2508, 41.0973], [2.2352, 41.0965], [2.2127, 41.0687], [2.1804, 41.053], [2.151, 41.0501], [2.1587, 41.0315], [2.3233, 41.1191], [2.3847, 41.1355], [2.3787, 41.1124], [2.374, 41.1166], [2.363, 41.115], [2.3781, 41.1273], [2.3844, 41.1282], [2.3771, 41.1454], [2.5215, 41.2162], [2.536, 41.2162], [2.5919, 41.2201], [2.5817, 41.2166], [2.593, 41.212], [2.6607, 41.2174], [3.214, 41.3134], [3.214, 41.3171], [3.1845, 41.2763], [3.1805, 41.3124], [3.1776, 41.3179], [3.2525, 41.2601], [3.265, 41.2629], [3.3453, 41.2462], [3.3221, 41.2562], [3.2079, 41.2772], [3.2222, 41.2914], [3.261, 41.2813], [3.275, 41.288], [3.4263, 41.3065], [3.5907, 41.2869], [3.5335, 41.273], [3.6023, 41.5162], [3.4962, 41.524], [3.4937, 41.5254], [3.3493, 41.5178], [3.0022, 41.0694], [3.001, 41.1195], [2.8616, 41.1352], [2.8711, 41.101], [2.5899, 41.2895], [2.5822, 41.3052], [2.5892, 41.3016], [2.5696, 41.2931], [2.5538, 41.2744], [2.6148, 41.2687], [2.6282, 41.2788], [2.6084, 41.2966], [2.5655, 41.3388], [2.5234, 41.309], [2.4777, 41.2956], [2.2024, 41.1123], [2.2011, 41.1139], [2.2028, 41.1196], [2.1535, 41.1061], [2.1751, 41.0951], [2.2129, 41.1352], [2.2336, 41.1301], [2.2658, 41.1713], [2.2659, 41.1801], [2.5274, 41.1996], [2.5873, 41.2188], [2.6504, 41.2259], [2.7338, 41.237], [3.1366, 41.3878], [3.142, 41.4108], [3.0905, 41.4045], [3.093, 41.3944], [3.0931, 41.3867], [3.4727, 41.3774], [3.4632, 41.4557], [3.4401, 41.3996], [3.441, 41.4207], [3.4305, 41.4246], [3.6809, 42.1422], [3.6658, 42.1656], [3.6115, 42.1224], [3.6758, 42.1485], [4.1695, 42.4962], [4.2289, 42.5132], [4.3151, 42.5225], [4.2592, 42.485], [4.2698, 42.4759], [4.2337, 42.4876], [4.1937, 42.4843], [4.3879, 42.546], [4.4072, 42.5395], [4.4063, 42.5327], [4.5983, 42.4751], [4.6852, 42.4316], [4.6858, 42.4285], [4.7216, 42.4054], [4.7298, 42.419], [4.8315, 42.4388], [5.0299, 42.5314], [5.0128, 42.5411], [4.9925, 42.5341], [4.9465, 42.5269], [5.0082, 42.6115], [4.864, 42.6587], [4.7558, 42.6876], [4.723, 42.6819], [4.4933, 42.5926], [4.4949, 42.5901], [4.4531, 42.5795], [4.5006, 42.6036], [4.4577, 42.588], [4.3274, 42.538], [4.2371, 42.5113], [4.1921, 42.4952], [4.1553, 42.4888], [4.1156, 42.5026], [4.0875, 42.503], [4.0226, 42.3686], [4.0456, 42.3829], [4.079, 42.4149], [4.0895, 42.4076], [4.1184, 42.4426], [4.2497, 42.6049], [4.3051, 42.5871], [4.3164, 42.5761], [4.3488, 42.5532], [4.3465, 42.5161], [4.3316, 42.4946], [4.3055, 42.5037], [4.3159, 42.5014], [4.2868, 42.4966], [4.311, 42.5033], [4.3182, 42.5159], [4.5519, 42.5411], [4.576, 42.5458], [4.5833, 42.5493], [4.6096, 42.554], [4.9383, 42.7666], [4.9977, 42.8021], [5.2284, 42.9885], [5.2552, 42.9541], [5.3306, 42.9393], [5.2244, 42.9044], [5.2053, 42.8888], [5.2643, 42.905], [5.268, 42.8646], [5.3444, 42.7074], [5.3754, 42.6949], [5.3672, 42.7068], [5.3585, 42.6853], [5.4028, 42.6692], [4.9191, 42.4715], [4.4438, 42.3641], [3.9863, 42.3885], [3.8853, 42.2868], [3.99, 42.3208], [4.0012, 42.3516], [4.3708, 42.5743], [4.3579, 42.5648], [4.3873, 42.6516], [4.4056, 42.6633], [4.4489, 42.6656], [4.4757, 42.6816], [4.499, 42.6875], [4.9244, 42.7531], [5.1121, 42.8802], [5.191, 42.9517], [5.2583, 42.9543], [5.2339, 42.9888], [5.2625, 42.9769], [5.1659, 43.0258], [5.1326, 43.0149], [5.1179, 43.0159], [5.0642, 43.015], [5.071, 43.0083], [5.0984, 42.8666], [5.0625, 42.8278]]}}, {"type": "Feature", "properties": {"whale_id": "232683", "coordinateProperties": {"times": [1652525268000, 1652550128000, 1652550365000, 1652560442000, 1652594191000, 1652646675000, 1652737939000, 1652737992000, 1652862101000, 1652897570000, 1652908304000, 1652988024000, 1652988480000, 1652993510000, 1652994686000, 1653084678000, 1653163833000, 1653166305000, 1653248285000, 1653295922000, 1653419600000, 1653425134000, 1653508710000, 1653514683000, 1653553001000, 1653554589000, 1653588214000, 1653673254000, 1653771956000, 1653807623000, 1653819181000, 1653845397000, 1653851365000, 1653854124000, 1653857046000, 1653857498000, 1653863706000, 1653907077000, 1653907974000, 1653932620000, 1653934072000, 1653939513000, 1653942134000, 1653949393000, 1654027274000, 1654114456000, 1654118528000, 1654206294000, 1654285882000, 1654374019000, 1654542299000, 1654550396000, 1654726580000]}}, "geometry": {"type": "LineString", "coordinates": [[1.9725, 40.9383], [2.082, 40.9898], [2.0733, 40.9915], [2.0974, 40.9498], [1.8528, 40.7594], [1.5265, 40.655], [1.8195, 40.8173], [1.8045, 40.8114], [2.9072, 41.3106], [3.4129, 41.3161], [3.3363, 41.3164], [3.7214, 41.509], [3.6979, 41.4943], [3.8287, 41.5717], [3.8415, 41.6029], [4.3361, 41.8701], [4.2435, 41.8688], [4.2574, 41.8532], [3.955, 41.944], [3.8321, 42.1988], [3.9028, 42.2338], [3.881, 42.1951], [4.0628, 42.214], [4.1988, 42.2635], [4.2473, 42.4674], [4.2393, 42.5157], [4.3154, 42.1331], [4.1469, 42.1702], [4.0914, 42.195], [4.1205, 42.2577], [4.1552, 42.2263], [3.9979, 42.2093], [4.0551, 42.2561], [4.025, 42.2059], [3.9871, 42.1876], [4.0112, 42.2002], [4.1273, 42.2225], [4.0589, 42.2528], [4.0449, 42.2307], [4.0394, 42.2755], [4.0043, 42.2743], [4.0195, 42.232], [4.0476, 42.2544], [4.0251, 42.2474], [4.0004, 42.1541], [4.4694, 42.2524], [4.4792, 42.2272], [4.8769, 42.5801], [5.3372, 42.6353], [4.4866, 42.586], [3.7923, 42.0344], [3.7341, 41.9272], [3.9943, 41.8966]]}}, {"type": "Feature", "properties": {"whale_id": "232684", "coordinateProperties": {"times": [1652639555000, 1652642280000, 1652652142000, 1652731935000, 1652734626000, 1652737864000, 1652738020000, 1652777225000, 1652782350000, 1652782371000, 1652809791000, 1652811961000, 1652823029000, 1652896861000, 1652897545000, 1652908336000, 1652952780000, 1653040681000, 1653157528000, 1653159701000, 1653160043000, 1653172261000, 1653207534000, 1653255053000, 1653285375000, 1653290150000, 1653334881000, 1653337214000, 1653343638000, 1653423103000, 1653425288000, 1653429344000, 1653459959000, 1653502608000, 1653507225000, 1653508409000, 1653509093000, 1653510198000, 1653593840000, 1653594283000, 1653601702000, 1653677809000, 1653678915000, 1653680008000, 1653680703000, 1653686301000, 1653722937000, 1653765609000, 1653771853000, 1653771863000, 1653848678000, 1653907204000, 1653932701000, 1653939474000, 1653942164000, 1653945234000, 1653981610000, 1653983432000, 1653987498000, 1653989301000, 1653992392000, 1653993675000, 1654024276000, 1654027335000, 1654033626000, 1654035129000, 1654074584000, 1654077534000, 1654112583000, 1654118475000, 1654153266000, 1654200022000, 1654200599000, 1654203690000, 1654206393000, 1654330169000, 1654333231000, 1654373932000, 1654380124000, 1654451717000, 1654457271000, 1654501778000, 1654594609000, 1654624543000]}}, "geometry": {"type": "LineString", "coordinates": [[2.1689, 40.8973], [2.2013, 40.9107], [2.1957, 40.9377], [2.2937, 40.9207], [2.2643, 40.9191], [2.301, 40.8903], [2.3155, 40.9119], [2.1111, 40.8222], [1.9583, 40.8012], [1.952, 40.7844], [2.1464, 40.6834], [2.0763, 40.7], [2.242, 40.6999], [2.6771, 40.7647], [2.7129, 40.7047], [2.7891, 40.8034], [3.2311, 40.9036], [3.2254, 40.963], [3.3687, 40.8141], [3.3561, 40.8452], [3.4465, 40.8513], [3.4917, 40.7284], [3.5183, 40.9728], [3.5258, 40.692], [3.3053, 40.719], [3.2515, 40.7053], [2.9978, 40.8264], [3.0282, 40.8353], [3.2072, 40.9656], [3.2472, 40.8865], [3.2496, 40.8934], [3.277, 40.8932], [3.3411, 40.6733], [3.6009, 40.5709], [3.6944, 40.5888], [3.6701, 40.5624], [3.6814, 40.5824], [3.7109, 40.5602], [3.6961, 40.6411], [3.7356, 40.6526], [3.7235, 40.7017], [3.4907, 41.1635], [3.4358, 41.1626], [3.4346, 41.1541], [3.4921, 41.1292], [3.545, 41.1201], [3.3267, 41.2212], [3.3321, 41.0847], [3.3178, 41.0922], [3.2976, 41.0912], [3.3097, 41.0106], [3.6286, 41.1664], [3.6473, 41.1651], [3.5752, 41.1546], [3.5438, 41.1268], [3.6699, 41.1804], [3.8753, 41.2404], [3.8733, 41.2726], [3.9743, 41.3298], [4.0099, 41.3522], [4.0614, 41.3865], [4.0831, 41.3987], [4.2985, 41.3878], [4.2592, 41.3547], [4.3791, 41.3251], [4.3905, 41.3357], [4.22, 41.3403], [4.3369, 41.3316], [4.3197, 41.4468], [4.346, 41.5086], [4.446, 41.6994], [5.3351, 41.7683], [5.2939, 41.7412], [5.2786, 41.7426], [5.3264, 41.7697], [5.24, 42.5248], [5.2708, 42.5819], [5.4478, 42.6159], [5.4803, 42.642], [5.4276, 42.7155], [5.3186, 42.7369], [5.2852, 42.7494], [5.1811, 42.7533], [5.1145, 42.7838]]}}, {"type": "Feature", "properties": {"whale_id": "232685", "coordinateProperties": {"times": [1652640798000, 1652642172000, 1652646620000, 1652734825000, 1652909123000, 1653078495000, 1653080387000]}}, "geometry": {"type": "LineString", "coordinates": [[1.8796, 40.8889], [1.8533, 40.8566], [1.764, 40.8092], [1.5078, 40.5842], [1.8412, 40.7868], [1.6518, 40.6088], [1.6632, 40.5932]]}}, {"type": "Feature", "properties": {"whale_id": "232686", "coordinateProperties": {"times": [1685913025000, 1685914047000, 1685943184000, 1685944602000, 1685957297000, 1685958619000, 1685960284000, 1685992420000, 1685997249000, 1685998011000, 1685999733000, 1686036417000, 1686041691000, 1686076721000, 1686077275000, 1686077604000, 1686082865000, 1686085429000, 1686115206000, 1686127551000, 1686161929000, 1686162238000, 1686167930000, 1686168100000, 1686168414000, 1686170840000, 1686174454000, 1686200400000, 1686202931000, 1686212016000, 1686212874000, 1686215373000, 1686218721000, 1686221411000, 1686248237000, 1686252278000, 1686253066000, 1686254158000, 1686256658000, 1686259486000, 1686298894000, 1686331225000, 1686332593000, 1686337168000, 1686338032000, 1686341417000, 1686344486000, 1686376568000, 1686377826000, 1686381986000, 1686384500000, 1686388934000, 1686390421000, 1686391680000, 1686393166000, 1686417905000, 1686421728000, 1686422491000, 1686427492000, 1686429694000, 1686431822000, 1686461631000, 1686462154000, 1686466867000, 1686474182000, 1686478616000, 1686506121000, 1686507558000, 1686519652000, 1686547044000, 1686564301000, 1686565063000, 1686592540000, 1686594019000, 1686596530000, 1686600205000, 1686603027000, 1686637356000, 1686642350000, 1686647564000, 1686648337000, 1686650530000, 1686683326000, 1686688636000, 1686690978000, 1686691086000, 1686721845000, 1686727348000, 1686732977000, 1686768171000, 1686774398000, 1686806281000, 1686808381000, 1686812053000, 1686818183000, 1686818917000, 1686820703000, 1686850176000, 1686855359000, 1686856128000, 1686859133000, 1686859939000, 1686896913000, 1686897135000, 1686908881000, 1686912026000, 1686940698000, 1686943991000, 1686945976000, 1686946869000, 1686981221000, 1686990052000, 1686991008000, 1686997139000, 1686998648000, 1687029015000, 1687032085000, 1687034898000, 1687065874000, 1687072809000, 1687076040000, 1687076061000, 1687078897000, 1687079137000, 1687082437000, 1687117168000, 1687117234000, 1687150261000, 1687157796000, 1687161571000, 1687167475000, 1687167503000, 1687170070000, 1687194228000, 1687202723000, 1687204586000, 1687208399000, 1687209060000, 1687211127000, 1687240302000, 1687242433000, 1687248525000, 1687249284000, 1687252625000, 1687253364000, 1687258621000, 1687288521000, 1687289455000, 1687290667000, 1687294713000, 1687297000000, 1687325421000, 1687325587000, 1687333340000, 1687338972000, 1687366914000, 1687368295000, 1687369359000, 1687372412000, 1687374277000, 1687374486000, 1687378720000, 1687380149000, 1687410899000, 1687418355000, 1687422942000, 1687424757000, 1687425802000, 1687426869000, 1687459793000, 1687459807000, 1687463946000, 1687466854000, 1687496184000, 1687500456000, 1687503171000, 1687509219000, 1687510424000, 1687511036000, 1687516164000, 1687551659000, 1687555001000, 1687587939000, 1687593307000, 1687594056000, 1687595953000, 1687598192000, 1687599303000, 1687628778000, 1687634986000, 1687637124000, 1687669485000, 1687672375000, 1687675497000, 1687678944000, 1687681797000, 1687687389000, 1687687658000, 1687689999000, 1687713539000, 1687719867000, 1687723077000, 1687725165000, 1687757526000, 1687759979000, 1687763871000, 1687767446000, 1687769615000, 1687772558000, 1687773285000, 1687775578000, 1687775723000, 1687804649000, 1687808587000, 1687816558000, 1687842606000, 1687844363000, 1687848758000, 1687857800000, 1687858840000, 1687860568000, 1687888392000, 1687889639000, 1687894292000, 1687894324000, 1687895734000, 1687901830000, 1687927983000, 1687933288000, 1687938732000, 1687939560000, 1687939745000, 1687944745000, 1687945937000, 1687946964000, 1687974859000, 1687979750000, 1687980190000, 1687983846000, 1687986859000, 1688032579000, 1688063351000, 1688065269000, 1688065721000, 1688065749000, 1688066142000, 1688069000000, 1688071929000, 1688073922000, 1688109252000, 1688110095000, 1688116215000, 1688119103000, 1688147833000, 1688150169000, 1688153914000, 1688157327000, 1688189288000, 1688194090000, 1688195624000, 1688201302000, 1688207282000, 1688245270000, 1688248244000, 1688274483000, 1688284983000, 1688286440000, 1688287603000, 1688289377000, 1688292326000, 1688293346000, 1688319897000, 1688321463000, 1688322301000, 1688322797000, 1688326064000, 1688327546000, 1688333607000, 1688363809000, 1688365359000, 1688369831000, 1688371661000, 1688373189000, 1688377472000, 1688381355000, 1688412616000, 1688414297000, 1688416414000, 1688448278000, 1688454602000, 1688458822000, 1688462727000, 1688464585000, 1688465613000, 1688466889000, 1688495491000, 1688497946000, 1688500043000, 1688500590000, 1688503940000, 1688535999000, 1688539401000, 1688544432000, 1688545590000, 1688547955000, 1688550544000, 1688577165000, 1688587744000, 1688621198000, 1688623192000, 1688624357000, 1688630163000, 1688633284000, 1688636100000, 1688636206000, 1688638377000, 1688639187000, 1688668090000, 1688671218000, 1688671603000, 1688679528000, 1688707712000, 1688715228000, 1688715820000, 1688721208000, 1688721976000, 1688723971000, 1688724396000, 1688751595000, 1688756239000, 1688759223000, 1688763249000, 1688792060000, 1688807550000, 1688809461000, 1688836144000, 1688838554000, 1688842040000, 1688842800000, 1688850391000, 1688887100000, 1688891065000, 1688894769000, 1688935537000, 1688936420000, 1688967115000, 1688967713000, 1688969976000, 1688975900000, 1688978788000, 1688979707000, 1688980939000, 1688984837000, 1688985738000, 1689010968000, 1689010977000, 1689020202000, 1689051665000, 1689052903000, 1689054935000, 1689056449000, 1689060864000, 1689064893000, 1689066770000, 1689067892000, 1689070583000, 1689070988000, 1689072396000, 1689072785000, 1689094257000, 1689095488000, 1689101617000, 1689101628000, 1689142199000, 1689145649000, 1689146234000, 1689150097000, 1689150340000, 1689151748000, 1689152993000, 1689156168000, 1689156242000, 1689158420000, 1689180766000, 1689185034000, 1689185995000, 1689191376000, 1689193852000, 1689230178000, 1689230440000, 1689235192000, 1689235842000, 1689236374000, 1689237941000, 1689241159000, 1689241994000, 1689243965000, 1689245502000, 1689271448000, 1689276343000, 1689276388000, 1689279132000, 1689311231000, 1689315200000, 1689321283000, 1689321618000, 1689326462000, 1689327697000, 1689329675000, 1689355157000, 1689355567000, 1689361145000, 1689361230000, 1689369020000, 1689370956000, 1689399383000, 1689401781000, 1689404077000, 1689407340000, 1689411551000, 1689413358000, 1689414534000, 1689415379000, 1689446465000, 1689447255000, 1689448450000, 1689484823000, 1689486494000, 1689488019000, 1689491105000, 1689492944000, 1689499628000, 1689526202000, 1689528443000, 1689531967000, 1689536143000, 1689537676000, 1689540440000, 1689570719000, 1689572051000, 1689576747000, 1689582031000, 1689587863000, 1689590648000, 1689590837000, 1689612385000, 1689616817000, 1689626085000, 1689627934000, 1689655959000, 1689660802000, 1689661407000, 1689666842000, 1689667053000, 1689670454000, 1689672368000, 1689673180000, 1689707733000, 1689713522000, 1689714010000, 1689757996000, 1689758218000, 1689761158000, 1689761864000, 1689764093000, 1689786596000, 1689789620000, 1689799155000, 1689829775000, 1689830435000, 1689831325000, 1689835647000, 1689841612000, 1689849342000, 1689849743000, 1689876168000, 1689882981000, 1689919710000, 1689933262000, 1689934326000, 1689960183000, 1689975645000, 1690001795000, 1690005366000, 1690009499000, 1690012332000, 1690012965000, 1690018855000, 1690019660000, 1690044044000, 1690047246000, 1690048896000, 1690049052000, 1690060705000, 1690062335000, 1690087755000, 1690090022000, 1690103058000, 1690104735000, 1690104751000, 1690107683000, 1690139553000, 1690139607000, 1690145814000, 1690146072000, 1690174407000, 1690177474000, 1690177848000, 1690182045000, 1690184374000, 1690187927000, 1690189945000, 1690190391000, 1690192388000, 1690192660000, 1690195538000, 1690195940000, 1690218325000, 1690219259000, 1690222984000, 1690224173000, 1690231764000, 1690261539000, 1690307785000, 1690405025000, 1690435372000, 1690453463000, 1690486460000, 1690488742000, 1690489679000, 1690490418000, 1690524619000, 1690574225000, 1690574283000, 1690577613000, 1690618877000, 1690627767000, 1690659226000, 1690662690000, 1690666061000, 1690744145000, 1690785765000, 1690873060000, 1690886032000, 1690912303000, 1690912389000, 1690913441000, 1690922809000, 1691003307000, 1691009572000]}}, "geometry": {"type": "LineString", "coordinates": [[5.1304, 42.8827], [5.1512, 42.8871], [5.0925, 42.8601], [5.1154, 42.8582], [5.0385, 42.8716], [5.074, 42.8535], [5.0834, 42.8754], [5.0963, 42.8368], [5.0682, 42.8103], [5.0801, 42.8027], [5.0753, 42.8086], [4.9771, 42.8239], [4.9459, 42.8132], [5.1424, 42.9415], [5.1795, 42.945], [5.1609, 42.9716], [5.2132, 42.9859], [5.2107, 43.0078], [5.0914, 42.9653], [5.0503, 42.9662], [4.9126, 42.9021], [4.9262, 42.9087], [4.8879, 42.9186], [4.8862, 42.9313], [4.8664, 42.9089], [4.9198, 42.9153], [4.9236, 42.9292], [4.8943, 42.8811], [4.907, 42.8833], [4.8467, 42.8286], [4.8265, 42.8306], [4.8089, 42.8224], [4.792, 42.8371], [4.8175, 42.8411], [4.8508, 42.8087], [4.8294, 42.8439], [4.8056, 42.8514], [4.8088, 42.8599], [4.8068, 42.8698], [4.8098, 42.914], [4.4895, 42.7418], [4.3647, 42.6452], [4.3713, 42.6606], [4.3857, 42.6072], [4.3842, 42.6627], [4.348, 42.6409], [4.383, 42.6862], [4.3751, 42.6459], [4.3902, 42.6605], [4.3936, 42.6414], [4.3462, 42.6372], [4.3363, 42.6043], [4.3223, 42.5949], [4.3259, 42.5846], [4.3262, 42.5868], [4.4761, 42.6143], [4.5163, 42.6], [4.521, 42.6067], [4.4547, 42.6255], [4.4594, 42.576], [4.5181, 42.5685], [4.8052, 42.6941], [4.8102, 42.6966], [4.8678, 42.6859], [5.0068, 42.7434], [5.0475, 42.7698], [5.2127, 42.8021], [5.2058, 42.7822], [5.3093, 42.8179], [5.4361, 42.8404], [5.4179, 42.8354], [5.4373, 42.8317], [5.4035, 42.7799], [5.3887, 42.7843], [5.4486, 42.7953], [5.3647, 42.7701], [5.3827, 42.776], [5.3002, 42.8486], [5.2885, 42.8588], [5.2908, 42.8732], [5.2896, 42.8676], [5.3012, 42.8539], [5.695, 42.8136], [5.7213, 42.8476], [5.7283, 42.8221], [5.7345, 42.8203], [5.8094, 42.9141], [5.8814, 42.9369], [5.9029, 42.954], [5.7027, 42.93], [5.7328, 42.9343], [5.7123, 42.8766], [5.708, 42.8626], [5.6581, 42.8579], [5.687, 42.8638], [5.6825, 42.8606], [5.635, 42.8676], [5.7864, 42.8187], [6.0209, 42.8041], [6.0444, 42.804], [6.0373, 42.6966], [6.1195, 42.7194], [6.8437, 42.6989], [6.8473, 42.7114], [6.9989, 42.7441], [6.9873, 42.7206], [7.2101, 42.7134], [7.2182, 42.6912], [7.1803, 42.7405], [7.2239, 42.6827], [7.6536, 42.6504], [7.678, 42.6657], [7.6899, 42.6782], [7.7195, 42.696], [7.7124, 42.6937], [7.8407, 42.7875], [7.7902, 42.7834], [7.8213, 42.8313], [7.8549, 42.989], [7.8859, 43.0346], [7.8539, 43.0462], [7.8305, 43.0494], [7.8346, 43.0699], [7.8563, 43.0683], [7.8715, 43.0979], [7.9809, 43.3124], [7.9505, 43.3018], [7.9488, 43.4216], [7.9427, 43.4361], [7.9558, 43.4431], [7.9962, 43.4726], [7.9948, 43.4727], [7.9791, 43.4882], [8.3142, 43.6016], [8.2632, 43.6397], [8.2805, 43.6541], [8.3157, 43.6525], [8.3034, 43.6611], [8.3588, 43.6666], [8.3276, 43.6996], [8.3666, 43.7123], [8.3285, 43.7012], [8.3301, 43.7492], [8.3847, 43.7228], [8.3798, 43.7232], [8.4155, 43.6957], [8.3107, 43.7716], [8.2991, 43.7788], [8.3069, 43.7441], [8.3168, 43.7158], [8.277, 43.6707], [8.3147, 43.6428], [8.3012, 43.6358], [8.2183, 43.623], [8.1754, 43.6168], [8.1142, 43.5605], [8.131, 43.5731], [8.1248, 43.5835], [8.1732, 43.5738], [8.1934, 43.5994], [8.1233, 43.5934], [8.1307, 43.5903], [8.1629, 43.5952], [8.1725, 43.6037], [8.221, 43.6303], [8.2715, 43.6185], [8.2701, 43.6282], [8.2685, 43.6208], [8.2828, 43.614], [8.4257, 43.6621], [8.3921, 43.6777], [8.3298, 43.675], [8.3469, 43.673], [8.3218, 43.671], [8.2792, 43.6819], [8.2828, 43.696], [8.2498, 43.6974], [8.258, 43.6961], [8.2556, 43.6966], [8.2397, 43.6825], [8.0696, 43.7214], [8.0695, 43.708], [8.1504, 43.6696], [8.1487, 43.6969], [8.1508, 43.6976], [8.1517, 43.7068], [8.1505, 43.7085], [8.1521, 43.7188], [8.2362, 43.7484], [8.2629, 43.777], [8.2753, 43.7776], [8.4872, 43.5913], [8.5191, 43.5939], [8.5336, 43.576], [8.5613, 43.5727], [8.5717, 43.5587], [8.6594, 43.523], [8.6323, 43.5272], [8.6463, 43.4928], [8.6872, 43.3966], [8.7054, 43.4026], [8.6878, 43.3902], [8.682, 43.3915], [8.7501, 43.3653], [8.7732, 43.358], [8.8187, 43.3598], [8.8282, 43.3581], [8.8559, 43.3542], [8.8723, 43.3542], [8.8798, 43.3529], [8.8951, 43.3498], [8.8996, 43.35], [8.9124, 43.3353], [8.8847, 43.3501], [8.9694, 43.3925], [9.0502, 43.3666], [9.044, 43.3543], [9.1021, 43.3755], [9.1173, 43.3675], [9.1073, 43.3397], [9.1315, 43.3393], [9.2482, 43.2766], [9.2978, 43.258], [9.3162, 43.2602], [9.3135, 43.2563], [9.3059, 43.2412], [9.3225, 43.2575], [9.3662, 43.3316], [9.3868, 43.3721], [9.4096, 43.4018], [9.414, 43.399], [9.4134, 43.4036], [9.3984, 43.418], [9.3855, 43.4239], [9.3764, 43.4233], [9.2871, 43.3743], [9.2901, 43.3635], [9.3214, 43.3704], [9.307, 43.3674], [9.3302, 43.3556], [9.1568, 43.4294], [9.1625, 43.4162], [9.1223, 43.4209], [9.0983, 43.4173], [9.0967, 43.4185], [9.1175, 43.4232], [9.0775, 43.4418], [9.0467, 43.4628], [9.0587, 43.4785], [8.8878, 43.5832], [8.8641, 43.5717], [8.8805, 43.6181], [8.9021, 43.633], [8.827, 43.6347], [8.7583, 43.643], [8.7729, 43.6535], [8.7632, 43.6178], [8.6663, 43.642], [8.6564, 43.6797], [8.6498, 43.6816], [8.6563, 43.7256], [8.6801, 43.7598], [8.7211, 43.8998], [8.7223, 43.9661], [8.6116, 43.8873], [8.6803, 43.9197], [8.6907, 43.9166], [8.6907, 43.9169], [8.7137, 43.9139], [8.7316, 43.9017], [8.7327, 43.893], [8.7747, 43.904], [8.7986, 43.9085], [8.7711, 43.9033], [8.7768, 43.9016], [8.772, 43.9494], [8.7633, 43.9177], [8.7682, 43.9486], [8.6529, 43.9823], [8.6416, 43.9689], [8.6488, 43.9558], [8.6577, 43.9446], [8.6226, 43.9525], [8.6656, 43.9209], [8.661, 43.9044], [8.651, 43.9028], [8.6682, 43.906], [8.6067, 43.8815], [8.6288, 43.8889], [8.5789, 43.8841], [8.5639, 43.8753], [8.539, 43.8679], [8.5161, 43.8613], [8.5187, 43.8588], [8.5368, 43.8511], [8.4178, 43.8674], [8.4078, 43.8532], [8.4501, 43.8719], [8.436, 43.8879], [8.4256, 43.8655], [8.2614, 43.7958], [8.2241, 43.7695], [8.2368, 43.8084], [8.2427, 43.8057], [8.2185, 43.7985], [8.2214, 43.7838], [8.2477, 43.8352], [8.2316, 43.8531], [8.2634, 43.8775], [8.2674, 43.8899], [8.2703, 43.8881], [8.294, 43.8995], [8.3065, 43.9191], [8.2876, 43.9107], [8.3155, 43.9093], [8.3214, 43.9063], [8.3512, 43.902], [8.2071, 43.718], [8.1669, 43.7106], [8.2081, 43.7059], [8.1245, 43.6729], [8.0555, 43.6306], [8.0497, 43.5736], [8.0179, 43.5706], [8.0112, 43.5613], [8.0007, 43.5565], [7.9939, 43.5631], [7.9937, 43.5676], [7.8541, 43.5337], [7.8002, 43.5043], [7.7511, 43.5001], [7.6707, 43.4668], [7.4148, 43.345], [7.4569, 43.261], [7.4604, 43.2615], [7.5827, 43.2233], [7.5108, 43.2214], [7.5389, 43.249], [7.5514, 43.2615], [7.5857, 43.2451], [7.7532, 43.2993], [7.7716, 43.315], [7.7791, 43.3181], [8.0112, 43.2879], [8.0337, 43.3043], [8.0335, 43.2869], [8.0439, 43.2828], [8.0611, 43.2679], [8.0941, 43.2383], [8.0818, 43.2452], [8.083, 43.2297], [8.0913, 43.2356], [8.1079, 43.2401], [8.0765, 43.2349], [8.1663, 43.2184], [8.1548, 43.2114], [8.179, 43.2277], [8.2837, 43.2936], [8.282, 43.3014], [8.2956, 43.3012], [8.3023, 43.3096], [8.3711, 43.3019], [8.3649, 43.3022], [8.3719, 43.3025], [8.3772, 43.3151], [8.4012, 43.3063], [8.3858, 43.3071], [8.4022, 43.3078], [8.4023, 43.3146], [8.3263, 43.3508], [8.3054, 43.36], [8.2671, 43.3259], [8.2722, 43.331], [8.3843, 43.261], [8.4017, 43.2562], [8.4033, 43.2518], [8.4128, 43.2537], [8.4375, 43.2557], [8.4446, 43.2636], [8.4628, 43.2702], [8.4951, 43.286], [8.4969, 43.283], [8.5027, 43.2972], [8.5419, 43.3249], [8.554, 43.3298], [8.5546, 43.3319], [8.6103, 43.3546], [8.5833, 43.3565], [8.5537, 43.5134], [8.5571, 43.5108], [8.5429, 43.5269], [8.5576, 43.5449], [8.5483, 43.5439], [8.5375, 43.5675], [8.5052, 43.5764], [8.5154, 43.5652], [8.509, 43.5775], [8.4892, 43.5729], [8.49, 43.4216], [8.4299, 43.4427], [8.4351, 43.4414], [8.4179, 43.4084], [7.9797, 43.5106], [7.9476, 43.5507], [7.931, 43.6107], [7.942, 43.6119], [7.9524, 43.6532], [7.9407, 43.6567], [7.9469, 43.6751], [8.0414, 43.677], [8.0281, 43.6769], [8.0105, 43.6768], [8.0169, 43.6765], [7.9891, 43.65], [7.9908, 43.6283], [7.9777, 43.5766], [7.9573, 43.5887], [7.9601, 43.5864], [7.9653, 43.5909], [7.9808, 43.5921], [7.9829, 43.5889], [7.9787, 43.5889], [7.9797, 43.5888], [7.7851, 43.4942], [7.7541, 43.4875], [7.7687, 43.4492], [7.3267, 43.306], [7.3294, 43.3276], [7.2687, 43.3304], [7.2771, 43.3569], [7.2684, 43.3665], [7.2985, 43.4051], [7.6409, 43.5434], [7.6722, 43.5526], [7.6924, 43.548], [7.7528, 43.5421], [7.8434, 43.5097], [7.8365, 43.4961], [7.9334, 43.4593], [7.9214, 43.4577], [7.9422, 43.4426], [7.9709, 43.4088], [7.9955, 43.376], [8.002, 43.3685], [8.0046, 43.3579], [7.994, 43.3835], [7.9883, 43.3827], [7.9554, 43.3462], [7.942, 43.329], [8.2223, 43.2861], [8.2532, 43.316], [8.2572, 43.3038], [8.2995, 43.344], [8.2988, 43.3466], [8.3249, 43.3621], [8.3229, 43.3689], [8.3376, 43.3783], [8.3979, 43.5627], [8.4655, 43.5795], [8.4749, 43.5931], [8.7061, 43.8161], [8.7121, 43.8209], [8.7241, 43.8232], [8.7159, 43.8197], [8.692, 43.8283], [8.7062, 43.8876], [8.6789, 43.8512], [8.7483, 43.8754], [8.5538, 43.9811], [8.5399, 43.9703], [8.5467, 43.9737], [8.5319, 43.9705], [8.4398, 43.9064], [8.4021, 43.8652], [8.4004, 43.8613], [8.3252, 43.7273], [8.4029, 43.678], [8.2753, 43.5211], [8.2481, 43.4886], [8.2226, 43.4734], [8.1206, 43.278], [8.1143, 43.2042], [8.1106, 43.1595], [8.0927, 43.1515], [8.0581, 43.1489], [8.0291, 43.148], [8.025, 43.1333], [8.0003, 43.143], [7.9922, 43.1359], [7.9688, 43.0216], [7.9851, 43.0013], [7.9818, 42.9915], [7.9835, 42.9908], [7.9602, 43.0138], [7.968, 43.0089], [7.9316, 42.8945], [7.8878, 42.8986], [7.8048, 42.88], [7.8025, 42.8722], [7.8024, 42.8695], [7.7914, 42.8607], [7.7091, 42.6392], [7.7074, 42.6337], [7.7381, 42.6323], [7.7578, 42.6243], [7.8014, 42.6318], [7.7452, 42.6244], [7.7489, 42.6256], [7.6901, 42.6419], [7.6613, 42.6557], [7.6099, 42.6671], [7.5795, 42.6762], [7.5681, 42.6784], [7.5479, 42.6855], [7.5488, 42.6858], [7.4942, 42.7036], [7.4902, 42.6989], [7.0701, 42.7028], [7.0389, 42.7173], [6.9872, 42.7043], [6.9349, 42.6809], [6.7865, 42.6897], [6.2551, 42.654], [5.3873, 42.433], [3.507, 42.023], [3.3431, 41.5057], [3.2068, 41.175], [2.7894, 40.728], [2.7183, 40.7094], [2.6906, 40.7058], [2.6995, 40.6923], [2.0373, 40.3837], [1.2144, 39.7739], [1.2129, 39.7726], [1.1706, 39.7332], [0.5081, 39.1704], [0.3533, 39.0674], [0.3786, 38.4857], [0.4081, 38.4151], [0.3602, 38.3871], [-0.8154, 37.1846], [-1.6543, 36.7113], [-3.6225, 36.138], [-3.8487, 36.0354], [-4.2733, 36.0057], [-4.2601, 35.998], [-4.2795, 36.0026], [-4.3956, 36.0318], [-5.5322, 35.9977], [-5.53, 35.9765]]}}, {"type": "Feature", "properties": {"whale_id": "232688", "coordinateProperties": {"times": [1685957107000, 1685986438000, 1685991547000, 1685992564000, 1685994837000, 1685997250000, 1685997803000, 1685999646000, 1686027669000, 1686033460000, 1686036318000, 1686041798000, 1686045243000, 1686077206000, 1686083206000, 1686115175000, 1686127305000, 1686130322000, 1686133306000, 1686133342000, 1686168199000, 1686168641000, 1686170945000, 1686174260000, 1686212111000, 1686212902000, 1686219007000, 1686221578000, 1686221599000, 1686246487000, 1686254076000, 1686259482000, 1686287231000, 1686297107000, 1686299065000, 1686304700000, 1686331046000, 1686332710000, 1686338121000, 1686344667000, 1686381830000, 1686387766000, 1686388996000, 1686390343000, 1686391924000, 1686393047000, 1686431828000, 1686434089000, 1686461712000, 1686462131000, 1686476306000, 1686477009000, 1686508622000, 1686513690000, 1686515112000, 1686546958000, 1686557609000, 1686600220000, 1686605993000, 1686679126000, 1686688892000, 1686691217000, 1686733155000, 1686735521000, 1686768470000, 1686774466000, 1686776857000, 1686812258000, 1686820673000, 1686849780000, 1686850154000, 1686853175000, 1686854021000, 1686861727000, 1686893706000, 1686897001000, 1686904644000, 1686905967000, 1686940716000, 1686940732000, 1686945709000, 1686946810000, 1686948028000, 1686990160000, 1686991189000, 1687032100000, 1687033719000, 1687065850000, 1687079045000, 1687081802000, 1687082253000, 1687084359000, 1687085217000, 1687123251000, 1687157561000, 1687161576000, 1687163457000, 1687198590000, 1687248508000, 1687281553000, 1687289417000, 1687290568000, 1687296773000, 1687325644000, 1687332880000, 1687333300000, 1687337838000, 1687368342000, 1687372392000, 1687374168000, 1687374363000, 1687380213000, 1687411001000, 1687418187000, 1687424649000, 1687425744000, 1687426866000, 1687459145000, 1687459548000, 1687463952000, 1687465894000, 1687469916000, 1687496090000, 1687500531000, 1687503155000, 1687509077000, 1687510350000, 1687511076000, 1687549939000, 1687551604000, 1687553821000, 1687555034000, 1687585049000, 1687587942000, 1687594040000, 1687628148000, 1687635004000, 1687637096000, 1687637246000, 1687640182000, 1687672269000, 1687684372000, 1687723023000, 1687725118000, 1687725238000, 1687759923000, 1687773151000, 1687775607000, 1687804369000, 1687859105000, 1687895516000, 1687898650000, 1687900503000, 1687901713000, 1687902520000, 1687938737000, 1687939510000, 1687946934000, 1687978868000, 1687986844000, 1688024376000, 1688063536000, 1688071940000, 1688109236000, 1688115166000, 1688116102000, 1688116214000, 1688145358000, 1688151328000, 1688157156000, 1688157357000, 1688188721000, 1688189386000, 1688199992000, 1688201204000, 1688201794000, 1688207205000, 1688236139000, 1688243095000, 1688245018000, 1688274468000, 1688284935000, 1688289373000, 1688292408000, 1688319773000, 1688321334000, 1688327354000, 1688328666000, 1688330747000, 1688369778000, 1688371597000, 1688373217000, 1688377589000, 1688381312000, 1688412672000, 1688414516000, 1688416613000, 1688454794000, 1688464894000, 1688502062000, 1688503793000, 1688535860000, 1688539488000, 1688547979000, 1688576416000, 1688593861000, 1688630177000, 1688630531000, 1688633094000, 1688636005000, 1688636171000, 1688638369000, 1688639107000, 1688666976000, 1688679460000, 1688706342000, 1688707666000, 1688721929000, 1688724323000, 1688753262000, 1688762110000, 1688765265000, 1688800225000, 1688809501000, 1688812356000, 1688893100000, 1688894593000, 1688895306000, 1688926589000, 1688935485000, 1688936580000, 1688967216000, 1688967777000, 1688975854000, 1688979690000, 1688982652000, 1689009114000, 1689010659000, 1689014605000]}}, "geometry": {"type": "LineString", "coordinates": [[4.4734, 42.3642], [4.4276, 42.4039], [4.4235, 42.4147], [4.3876, 42.4172], [4.4005, 42.4534], [4.3909, 42.4251], [4.426, 42.4215], [4.4559, 42.4128], [4.201, 42.3782], [4.4087, 42.483], [4.479, 42.3648], [4.6426, 42.3618], [4.6526, 42.3282], [4.5861, 42.2676], [4.6082, 42.2695], [4.6461, 42.3284], [4.8158, 42.2659], [4.746, 42.2722], [4.6715, 42.2639], [4.6931, 42.2267], [4.6126, 42.3315], [4.6249, 42.3497], [4.6142, 42.3355], [4.6199, 42.354], [4.7199, 42.3358], [4.6396, 42.3533], [4.6441, 42.343], [4.6982, 42.3173], [4.7162, 42.3222], [4.7245, 42.3008], [4.7851, 42.2541], [4.8046, 42.2138], [4.8159, 42.3537], [4.7323, 42.3482], [4.7421, 42.3518], [4.6686, 42.2794], [4.6289, 42.4661], [4.7306, 42.4348], [4.6949, 42.4061], [4.7115, 42.4329], [4.7662, 42.4263], [4.8847, 42.4168], [4.8458, 42.4037], [4.8846, 42.3865], [4.9039, 42.3817], [4.8917, 42.3769], [5.1172, 42.2308], [5.0981, 42.1657], [5.346, 42.1247], [5.3064, 42.1354], [5.5179, 42.0694], [5.4923, 42.0343], [5.8456, 41.9263], [5.7285, 41.9543], [5.7051, 41.9325], [5.713, 41.9101], [5.8767, 41.8673], [6.3023, 42.1023], [6.3346, 42.162], [6.9291, 42.7196], [7.072, 42.7403], [7.0403, 42.7794], [7.4476, 42.9494], [7.4468, 42.9119], [7.4995, 42.931], [7.589, 42.9785], [7.5542, 42.9681], [7.7693, 43.0716], [7.7787, 43.101], [7.8616, 43.1398], [7.8228, 43.1352], [7.7114, 43.099], [7.8036, 43.1299], [7.8515, 43.1304], [7.7619, 43.2082], [7.7473, 43.2088], [7.7817, 43.2677], [7.8331, 43.2623], [7.7715, 43.0653], [7.7694, 43.0617], [7.6388, 43.0674], [7.6405, 43.0356], [7.7441, 43.0536], [7.6434, 43.0105], [7.654, 43.0431], [7.8388, 43.1417], [7.8347, 43.1615], [7.8049, 43.1324], [7.7509, 43.0797], [7.7466, 43.0831], [7.7463, 43.0997], [7.7526, 43.1183], [7.7479, 43.1174], [7.7355, 43.0913], [7.7399, 43.1203], [7.657, 43.1166], [7.7523, 43.1812], [7.5909, 42.7908], [7.6405, 42.9559], [7.7943, 43.0109], [7.727, 42.99], [7.729, 43.0191], [7.7453, 43.0426], [7.8582, 43.1099], [7.8429, 43.1512], [7.8628, 43.1707], [7.8548, 43.2802], [7.7899, 43.2843], [7.7178, 43.2858], [7.6696, 43.2857], [7.6821, 43.2815], [7.6058, 43.2883], [7.675, 43.2956], [7.5231, 43.184], [7.5435, 43.2112], [7.557, 43.2159], [7.5638, 43.228], [7.8298, 43.3659], [7.7556, 43.3196], [7.7856, 43.3321], [7.785, 43.341], [7.8113, 43.3001], [7.9011, 43.2832], [7.9258, 43.2729], [7.9194, 43.2539], [7.924, 43.2333], [7.9386, 43.2109], [7.9425, 43.219], [7.9012, 43.2001], [7.89, 43.1867], [7.871, 43.1778], [7.9272, 43.1641], [7.842, 43.1467], [7.8355, 43.1242], [7.7586, 43.1698], [7.8555, 43.2922], [7.8491, 43.2394], [7.7785, 43.2641], [7.7681, 43.2791], [7.8485, 43.2782], [7.8327, 43.2971], [7.7426, 43.2026], [7.6374, 43.0909], [7.5862, 43.0937], [7.5768, 43.0809], [7.6663, 43.1611], [7.6041, 43.1239], [7.6062, 43.1081], [7.5869, 43.1174], [7.8689, 43.1595], [7.7667, 43.1364], [7.7589, 43.172], [7.7186, 43.1487], [7.7492, 43.1939], [7.7615, 43.1621], [7.6308, 43.126], [7.75, 43.1141], [7.6827, 43.0726], [7.7997, 43.0972], [7.7967, 43.1657], [7.8069, 43.1774], [7.837, 43.2912], [7.8244, 43.2985], [8.04, 43.236], [8.0602, 43.1643], [8.0548, 43.1597], [8.0326, 43.1613], [8.177, 43.1593], [8.244, 43.2252], [8.5293, 43.333], [8.4939, 43.332], [8.6426, 43.2952], [8.6171, 43.322], [8.7256, 43.2777], [8.7353, 43.291], [8.7208, 43.2823], [8.6772, 43.2753], [8.68, 43.3205], [8.7515, 43.4154], [8.7227, 43.4344], [8.9912, 43.4099], [9.0728, 43.3015], [8.9563, 43.3272], [9.0727, 43.2701], [9.2587, 43.3909], [9.2638, 43.3559], [9.2755, 43.3942], [9.257, 43.3464], [9.2688, 43.3768], [9.056, 43.5105], [9.1, 43.5151], [9.0964, 43.5618], [9.2346, 43.5001], [9.2462, 43.4813], [9.1263, 43.2427], [9.1972, 43.2544], [9.0854, 43.2205], [8.9655, 43.3181], [9.0442, 43.227], [9.0037, 43.3277], [9.0254, 43.3702], [9.2802, 43.4637], [9.1768, 43.4852], [9.0889, 43.51], [8.9817, 43.683], [9.02, 43.7199], [8.907, 43.7022], [8.9387, 43.6943], [8.9113, 43.6811], [8.9665, 43.6508], [8.9112, 43.6581], [8.858, 43.6531], [8.8884, 43.6452], [8.9332, 43.821], [8.8347, 43.8558], [8.8045, 43.8888], [8.8154, 43.9291], [8.8056, 43.8502], [8.7986, 43.8762], [8.6982, 43.8492], [8.5936, 43.8233], [8.5746, 43.7911], [8.4849, 43.5271], [8.5069, 43.5234], [8.5341, 43.5138], [7.9705, 43.219], [7.9794, 43.2285], [7.9352, 43.2282], [7.8127, 43.2191], [7.7314, 43.2353], [7.7526, 43.2101], [7.7189, 43.1693], [7.7129, 43.1671], [7.6239, 43.1466], [7.6084, 43.1279], [7.6058, 43.1367], [7.6416, 43.0897], [7.6694, 43.078], [7.7614, 43.0815]]}}, {"type": "Feature", "properties": {"whale_id": "232687", "coordinateProperties": {"times": [1685992304000, 1686036359000, 1686117874000, 1686168221000, 1686168264000, 1686168530000, 1686211991000, 1686221400000, 1686246634000, 1686246913000, 1686253418000, 1686254348000, 1686287283000, 1686330967000, 1686340014000, 1686341679000, 1686344669000, 1686388906000, 1686466816000, 1686472666000, 1686476270000, 1686478562000, 1686592380000, 1686632299000, 1686647503000, 1686733313000, 1686773207000, 1686774303000, 1686818229000, 1686856163000, 1686858351000, 1686860067000, 1686862501000, 1686893733000, 1686904551000, 1686910661000, 1686912965000, 1686943801000, 1687032137000, 1687038155000, 1687117275000, 1687123209000, 1687248571000, 1687252522000, 1687294457000, 1687325526000]}}, "geometry": {"type": "LineString", "coordinates": [[4.8138, 42.4578], [5.2433, 42.2623], [5.2394, 42.4951], [5.4038, 42.6888], [5.3986, 42.6874], [5.3816, 42.6891], [5.3466, 42.6715], [5.4084, 42.6323], [5.4678, 42.6393], [5.5145, 42.6222], [5.4967, 42.5999], [5.5136, 42.6228], [5.5649, 42.5944], [5.5547, 42.5767], [5.579, 42.6191], [5.5972, 42.602], [5.5288, 42.588], [5.3603, 42.6513], [5.1272, 42.4733], [5.1722, 42.4538], [5.1822, 42.4876], [5.1524, 42.4574], [4.9451, 42.4549], [4.9301, 42.4734], [5.036, 42.5072], [5.0682, 42.4729], [5.0552, 42.4584], [5.029, 42.4766], [4.9636, 42.3487], [4.8651, 42.3259], [4.8316, 42.3076], [4.8272, 42.2967], [4.8874, 42.2576], [4.7578, 42.2282], [4.6252, 42.2867], [4.6617, 42.3206], [4.7559, 42.2863], [4.9272, 42.2881], [4.9108, 42.266], [4.9434, 42.2343], [4.9856, 42.1665], [4.9347, 42.1043], [4.8213, 42.1602], [4.914, 42.092], [5.0489, 41.9597], [4.9533, 41.9987]]}}, {"type": "Feature", "properties": {"whale_id": "265491", "coordinateProperties": {"times": [1722107005000, 1722108333000, 1722112074000, 1722116438000, 1722154691000, 1722164924000, 1722188573000, 1722194128000, 1722205125000, 1722229156000, 1722238661000, 1722242366000, 1722245800000, 1722248740000, 1722268193000, 1722279812000, 1722288857000, 1722378422000, 1722401806000, 1722453707000, 1722462063000, 1722495491000, 1722505437000, 1722511526000, 1722536301000, 1722536662000, 1722538737000, 1722542284000, 1722546375000, 1722551608000, 1722586502000, 1722621108000, 1722632053000, 1722635279000, 1722665249000, 1722706404000, 1722712000000, 1722714184000, 1722718324000, 1722724801000, 1722756046000, 1722759585000, 1722762855000, 1722797723000, 1722800318000, 1722803302000, 1722808552000, 1722833328000, 1722881669000, 1722885358000, 1722885449000, 1722888729000, 1722889027000, 1722925728000, 1722933167000, 1722977160000, 1722980019000, 1722981812000, 1723007682000, 1723020899000, 1723047388000, 1723152099000, 1723186304000, 1723220514000, 1723226938000, 1723227056000, 1723237696000, 1723264994000, 1723265034000, 1723311001000, 1723320491000, 1723323474000, 1723328286000, 1723364903000, 1723396740000, 1723396762000, 1723415007000, 1723453053000, 1723481571000, 1723493494000, 1723520704000, 1723562967000, 1723578830000, 1723606763000, 1723609970000, 1723655202000, 1723656994000, 1723657279000, 1723667153000, 1723674778000, 1723711591000, 1723718465000, 1723752337000, 1723758498000, 1723780134000, 1723824183000, 1723826719000, 1723843264000, 1723848056000, 1723881905000, 1723914699000, 1723922625000, 1723928691000, 1723931771000, 1723967220000, 1723999293000, 1724002056000, 1724095740000, 1724098801000, 1724104955000, 1724140214000, 1724171834000, 1724182254000, 1724258290000, 1724300066000, 1724407755000, 1724431916000, 1724483934000, 1724484030000, 1724527531000, 1724531045000, 1724558692000, 1724602745000, 1724610610000, 1724649146000, 1724661387000, 1724664826000, 1724693147000, 1724693375000, 1724702298000, 1724737753000, 1724745505000, 1724777656000, 1724822594000, 1724862261000, 1724874153000, 1724881700000, 1724902519000, 1724918291000, 1724921841000, 1724971181000, 1725003802000, 1725003863000, 1725037088000, 1725037117000, 1725123709000, 1725130584000, 1725225694000, 1725277743000, 1725339065000, 1725361270000, 1725384193000, 1725401420000, 1725421594000, 1725482628000, 1725611992000, 1725618402000, 1725644792000, 1725680788000, 1725681215000, 1725727101000, 1725790116000, 1725831133000, 1725870428000, 1725900133000, 1725908141000, 1725911261000, 1725916849000, 1726030544000, 1726074995000, 1726081554000, 1726170679000, 1726173748000, 1726200074000, 1726200201000, 1726211178000, 1726247053000, 1726267684000, 1726298993000, 1726302504000, 1726341825000, 1726343072000, 1726344885000, 1726351439000, 1726395059000, 1726419171000, 1726460038000, 1726460185000, 1726478722000, 1726544154000, 1726555440000, 1726596120000, 1726604338000, 1726604817000, 1726634650000, 1726648912000, 1726652476000, 1726763323000, 1726776270000, 1726779228000, 1726805116000, 1726809983000, 1726847705000, 1726904485000]}}, "geometry": {"type": "LineString", "coordinates": [[20.8022, 37.5548], [20.8023, 37.5583], [20.7772, 37.5504], [20.7667, 37.5494], [20.5952, 37.7025], [20.5699, 37.7533], [20.5124, 37.8472], [20.4802, 37.8658], [20.5714, 37.9393], [20.455, 37.898], [20.5323, 37.8417], [20.5708, 37.8329], [20.5153, 37.8328], [20.5408, 37.8361], [20.4905, 37.8702], [20.5013, 37.8505], [20.4998, 37.9099], [20.4457, 37.9457], [20.4487, 37.8769], [20.4534, 37.8561], [20.4784, 37.8905], [20.4124, 37.9689], [20.5201, 37.9206], [20.4536, 37.8938], [20.577, 37.7801], [20.5732, 37.7738], [20.5784, 37.7657], [20.5953, 37.7419], [20.5937, 37.7085], [20.6055, 37.6853], [20.7072, 37.626], [20.6833, 37.6105], [20.6849, 37.5987], [20.6902, 37.5955], [20.6684, 37.6358], [20.5309, 37.8334], [20.5142, 37.8231], [20.5412, 37.8477], [20.5051, 37.8662], [20.5362, 37.8716], [20.3519, 38.0091], [20.3896, 37.9817], [20.359, 37.9991], [20.4082, 37.9857], [20.41, 37.9847], [20.4111, 37.9918], [20.3973, 37.9877], [20.3752, 37.9768], [20.2892, 37.9094], [20.3019, 37.9157], [20.3026, 37.9165], [20.3178, 37.9165], [20.3189, 37.9152], [20.3563, 37.9918], [20.3715, 37.945], [20.3657, 37.9542], [20.376, 37.9381], [20.3758, 37.9422], [20.4361, 37.9661], [20.4507, 37.9453], [20.3493, 37.9433], [20.4971, 37.8227], [20.3688, 38.0094], [20.3861, 37.9623], [20.3425, 37.9513], [20.3384, 37.9486], [20.4019, 37.9627], [20.5052, 37.8865], [20.5074, 37.8849], [20.6076, 37.6382], [20.6439, 37.6176], [20.6654, 37.6052], [20.6914, 37.587], [20.8205, 37.538], [21.0078, 37.4246], [20.9646, 37.4139], [21.0238, 37.322], [21.2732, 37.1208], [21.4228, 37.0979], [21.4434, 37.0167], [21.5731, 36.9037], [21.642, 36.859], [21.6448, 36.7823], [21.7107, 36.6344], [21.7728, 36.6328], [22.0822, 36.6648], [22.1044, 36.6657], [22.106, 36.6644], [22.1847, 36.6795], [22.2352, 36.6648], [22.2061, 36.7942], [22.2213, 36.8043], [22.1389, 36.8327], [22.1438, 36.8331], [22.2035, 36.768], [22.235, 36.7647], [22.2189, 36.7797], [22.208, 36.8284], [22.2147, 36.8227], [22.2431, 36.626], [22.2628, 36.6489], [22.2219, 36.7037], [22.1829, 36.7403], [22.143, 36.76], [22.1872, 36.7689], [22.2113, 36.8034], [22.2089, 36.7994], [22.5437, 36.307], [22.5382, 36.2897], [22.6014, 36.2875], [22.8236, 36.2411], [22.8232, 36.4089], [22.8262, 36.4724], [22.6009, 36.6229], [22.8153, 36.4791], [23.1522, 35.7926], [23.2442, 35.7875], [23.4847, 35.8034], [23.4859, 35.8036], [23.8021, 35.998], [23.8355, 36.0322], [23.9713, 36.1745], [24.342, 36.4121], [24.3653, 36.4522], [24.456, 36.5462], [24.5425, 36.4875], [24.5673, 36.4875], [24.7852, 36.7069], [24.7839, 36.7016], [24.8491, 36.7121], [25.0282, 36.8067], [25.0528, 36.8391], [25.3622, 36.8187], [25.7055, 36.7686], [26.0088, 36.8044], [26.0333, 36.8147], [26.0625, 36.8378], [26.1836, 36.8288], [26.3211, 36.8657], [26.3638, 36.8938], [26.6845, 37.0347], [26.8331, 37.0135], [26.826, 37.0071], [26.6944, 37.051], [26.6726, 37.0475], [26.2971, 37.2497], [26.2779, 37.2443], [26.2346, 37.3952], [26.1227, 37.3573], [26.1556, 37.3743], [26.2049, 37.3419], [26.2385, 37.3879], [26.1927, 37.3669], [26.1907, 37.378], [26.2032, 37.4286], [26.1277, 37.439], [26.1632, 37.423], [26.2127, 37.3724], [26.148, 37.3748], [26.212, 37.3634], [26.3792, 37.2899], [26.2796, 37.3618], [26.1378, 37.3814], [26.2487, 37.4302], [26.2003, 37.4186], [26.2063, 37.4343], [26.193, 37.4352], [26.194, 37.4487], [26.2142, 37.3942], [26.2315, 37.3337], [26.2048, 37.3393], [26.1873, 37.3881], [26.1699, 37.383], [26.1765, 37.3304], [26.1901, 37.3245], [26.1711, 37.3282], [26.237, 37.3571], [26.1388, 37.3675], [26.1812, 37.3377], [26.1558, 37.3418], [26.1105, 37.3802], [26.1034, 37.3713], [26.1011, 37.369], [26.0664, 37.3457], [26.0506, 37.2844], [26.1051, 37.2911], [26.1191, 37.427], [26.1174, 37.4311], [26.229, 37.3834], [26.1739, 37.3752], [26.1575, 37.3867], [26.1681, 37.411], [26.1727, 37.4038], [26.1714, 37.4194], [26.2224, 37.4053], [26.2082, 37.4398], [26.1966, 37.4264], [26.2294, 37.3466], [26.1679, 37.3498], [26.1494, 37.3555], [26.0897, 37.3882], [26.146, 37.3963], [26.2626, 37.3608], [26.1246, 37.4437]]}}]}